{
  "elements": [
{
  "type": "node",
  "id": 267090674,
  "lat": 52.4911635,
  "lon": 13.3612843,
  "timestamp": "2016-07-15T11:08:11Z",
  "version": 8,
  "changeset": 40757262,
  "user": "lwilke",
  "uid": 475830,
  "tags": {
    "addr:city": "Berlin",
    "addr:country": "DE",
    "addr:housenumber": "163",
    "addr:postcode": "10827",
    "addr:street": "Hauptstraße",
    "email": "schoeneberg@radcompany.de",
    "name": "Rad Company",
    "opening_hours": "Mo-Fr 10:00-19:00; Sa 10:00-18:00",
    "phone": "+49 30 78894123",
    "shop": "bicycle",
    "website": "http://radcompany.de",
    "wheelchair": "limited"
  }
},
{
  "type": "node",
  "id": 267616613,
  "lat": 52.5353347,
  "lon": 13.4264758,
  "timestamp": "2018-08-08T18:30:04Z",
  "version": 14,
  "changeset": 61477477,
  "user": "0815jh007",
  "uid": 697257,
  "tags": {
    "addr:city": "Berlin",
    "addr:country": "DE",
    "addr:housenumber": "48",
    "addr:postcode": "10405",
    "addr:street": "Winsstraße",
    "addr:suburb": "Prenzlauer Berg",
    "contact:website": "http://www.ostrad.de",
    "name": "Ostrad",
    "opening_hours": "Mo-Fr 09:00-19:00, Sa 10:00-15:00",
    "shop": "bicycle",
    "wheelchair": "limited"
  }
},
{
  "type": "node",
  "id": 267671633,
  "lat": 52.5361329,
  "lon": 13.4228315,
  "timestamp": "2014-11-13T14:12:10Z",
  "version": 11,
  "changeset": 26755748,
  "user": "SvenjaOMS",
  "uid": 1767597,
  "tags": {
    "addr:city": "Berlin",
    "addr:country": "DE",
    "addr:housenumber": "43",
    "addr:postcode": "10405",
    "addr:street": "Prenzlauer Allee",
    "addr:suburb": "Prenzlauer Berg",
    "name": "Bike Ants",
    "shop": "bicycle",
    "wheelchair": "no"
  }
},
{
  "type": "node",
  "id": 270742543,
  "lat": 52.5421157,
  "lon": 13.3774423,
  "timestamp": "2016-07-16T14:05:14Z",
  "version": 5,
  "changeset": 40780368,
  "user": "MorbZ",
  "uid": 42705,
  "tags": {
    "addr:city": "Berlin",
    "addr:country": "DE",
    "addr:housenumber": "84",
    "addr:postcode": "13347",
    "addr:street": "Gerichtstraße",
    "addr:suburb": "Gesundbrunnen",
    "name": "FahrRadCity",
    "shop": "bicycle",
    "website": "http://fahrradcity.berlin/"
  }
},
{
  "type": "node",
  "id": 275682701,
  "lat": 52.4858151,
  "lon": 13.3221299,
  "timestamp": "2017-05-15T19:32:28Z",
  "version": 6,
  "changeset": 48710808,
  "user": "RoterEmil",
  "uid": 4179530,
  "tags": {
    "addr:city": "Berlin",
    "addr:country": "DE",
    "addr:housenumber": "98-99",
    "addr:postcode": "10715",
    "addr:street": "Uhlandstraße",
    "addr:suburb": "Wilmersdorf",
    "email": "info@radsportsonntag.de",
    "fax": "+4930 8621824",
    "name": "Radsport Sonntag",
    "opening_hours": "Mo-Fr 10:00-19:00; Sa 09:30-14:00",
    "phone": "+4930 8736562",
    "shop": "bicycle",
    "website": "http://www.radsportsonntag.de/",
    "wheelchair": "limited"
  }
},
{
  "type": "node",
  "id": 282434809,
  "lat": 52.5173185,
  "lon": 13.4539564,
  "timestamp": "2015-12-22T00:59:17Z",
  "version": 11,
  "changeset": 36097351,
  "user": "atpl_pilot",
  "uid": 881429,
  "tags": {
    "addr:city": "Berlin",
    "addr:country": "DE",
    "addr:housenumber": "93",
    "addr:postcode": "10247",
    "addr:street": "Petersburger Straße",
    "addr:suburb": "Friedrichshain",
    "contact:phone": "+493042019209",
    "contact:website": "http://www.radmutter.com",
    "name": "Radmutter",
    "shop": "bicycle",
    "wheelchair": "limited"
  }
},
{
  "type": "node",
  "id": 285082719,
  "lat": 52.5103343,
  "lon": 13.4545643,
  "timestamp": "2017-02-04T14:12:43Z",
  "version": 21,
  "changeset": 45806389,
  "user": "RoterEmil",
  "uid": 4179530,
  "tags": {
    "addr:city": "Berlin",
    "addr:country": "DE",
    "addr:housenumber": "22",
    "addr:postcode": "10245",
    "addr:street": "Kopernikusstraße",
    "addr:suburb": "Friedrichshain",
    "email": "info@fc-friedrichshain.de",
    "fax": "+4930 29006886",
    "name": "Fahrradcenter Friedrichshain",
    "opening_hours": "Mo-Fr 10:00-19:00; Sa 10:00-16:00",
    "phone": "+4930 2910741",
    "service:bicycle:pump": "yes",
    "shop": "bicycle",
    "website": "http://www.fc-friedrichshain.de/"
  }
},
{
  "type": "node",
  "id": 287975859,
  "lat": 52.5133152,
  "lon": 13.4707026,
  "timestamp": "2015-12-22T00:54:24Z",
  "version": 14,
  "changeset": 36097351,
  "user": "atpl_pilot",
  "uid": 881429,
  "tags": {
    "addr:city": "Berlin",
    "addr:country": "DE",
    "addr:housenumber": "34",
    "addr:postcode": "10247",
    "addr:street": "Weichselstraße",
    "addr:suburb": "Friedrichshain",
    "contact:website": "www.eastsidebiker.de",
    "name": "EastsideBiker",
    "shop": "bicycle",
    "wheelchair": "no"
  }
},
{
  "type": "node",
  "id": 300808809,
  "lat": 52.5653462,
  "lon": 13.3944559,
  "timestamp": "2017-05-05T11:19:14Z",
  "version": 13,
  "changeset": 48423862,
  "user": "Anne Ghisla",
  "uid": 368337,
  "tags": {
    "addr:city": "Berlin",
    "addr:country": "DE",
    "addr:housenumber": "21A",
    "addr:postcode": "13187",
    "addr:street": "Wollankstraße",
    "addr:suburb": "Pankow",
    "name": "City Bike Berlin",
    "phone": "+49 030 43714057",
    "service:bicycle:pump": "no",
    "service:bicycle:repair": "yes",
    "service:bicycle:retail": "no",
    "service:bicycle:second_hand": "yes",
    "shop": "bicycle",
    "website": "http://www.citybikeberlin.de/?page_id=8",
    "wheelchair": "no"
  }
},
{
  "type": "node",
  "id": 304986897,
  "lat": 52.4633221,
  "lon": 13.3300909,
  "timestamp": "2017-12-17T17:56:31Z",
  "version": 15,
  "changeset": 54708756,
  "user": "wheelmap_visitor",
  "uid": 290680,
  "tags": {
    "addr:city": "Berlin",
    "addr:country": "DE",
    "addr:housenumber": "26",
    "addr:postcode": "12163",
    "addr:street": "Feuerbachstraße",
    "addr:suburb": "Steglitz",
    "contact:email": "service@fahrradhofsteglitz.de",
    "contact:fax": "+49307935931",
    "contact:phone": "+49307935832",
    "contact:website": "http://www.fahrradhofsteglitz.de/",
    "name": "Fahrradhof Steglitz",
    "opening_hours": "Mar-Oct: Mo-Fr 10:00-20:00; Sa 10:00-18:00; Nov-Feb: Mo-Fr 10:00-18:30; Sa 10:00-16:00",
    "service:bicycle:cleaning": "yes",
    "service:bicycle:pump": "yes",
    "service:bicycle:repair": "yes",
    "service:bicycle:retail": "yes",
    "service:bicycle:second_hand": "yes",
    "shop": "bicycle",
    "toilets:wheelchair": "no",
    "wheelchair": "limited"
  }
},
{
  "type": "node",
  "id": 308242285,
  "lat": 52.4907823,
  "lon": 13.4102522,
  "timestamp": "2016-09-01T14:40:52Z",
  "version": 12,
  "changeset": 41850664,
  "user": "holgerd",
  "uid": 77804,
  "tags": {
    "addr:city": "Berlin",
    "addr:country": "DE",
    "addr:housenumber": "14",
    "addr:postcode": "10967",
    "addr:street": "Körtestraße",
    "addr:suburb": "Kreuzberg",
    "email": "info@raederwerk.de",
    "name": "Räderwerk",
    "opening_hours": "Mo-Fr 10:00-19:00; Sa 10:00-16:00",
    "phone": "+49 30 6918590",
    "shop": "bicycle",
    "website": "http://www.raederwerk.de",
    "wheelchair": "yes"
  }
},
{
  "type": "node",
  "id": 308243091,
  "lat": 52.4918952,
  "lon": 13.4138148,
  "timestamp": "2014-09-01T23:21:13Z",
  "version": 13,
  "changeset": 25171948,
  "user": "jacobbraeutigam",
  "uid": 1260280,
  "tags": {
    "addr:city": "Berlin",
    "addr:country": "DE",
    "addr:housenumber": "137 a",
    "addr:postcode": "10967",
    "addr:street": "Urbanstraße",
    "addr:suburb": "Kreuzberg",
    "name": "Zweite Hand ZweiRad",
    "phone": "+493074073170",
    "service:bicycle:pump": "yes",
    "service:bicycle:rental": "yes",
    "service:bicycle:repair": "yes",
    "service:bicycle:second_hand": "yes",
    "shop": "bicycle",
    "website": "http://www.zweitehandzweirad.de/",
    "wheelchair": "limited"
  }
},
{
  "type": "node",
  "id": 314699372,
  "lat": 52.4917563,
  "lon": 13.4192797,
  "timestamp": "2017-09-21T11:13:52Z",
  "version": 7,
  "changeset": 52240901,
  "user": "ChrissW-R1",
  "uid": 251543,
  "tags": {
    "addr:city": "Berlin",
    "addr:country": "DE",
    "addr:housenumber": "35",
    "addr:postcode": "10967",
    "addr:street": "Dieffenbachstraße",
    "addr:suburb": "Kreuzberg",
    "name": "radlager",
    "opening_hours": "Mo-Fr 11:00-19:00; Sa 11:00-14:00",
    "shop": "bicycle",
    "website": "http://www.radlager-berlin.de",
    "wheelchair": "no"
  }
},
{
  "type": "node",
  "id": 318522784,
  "lat": 52.4578676,
  "lon": 13.3184244,
  "timestamp": "2018-08-08T18:30:11Z",
  "version": 14,
  "changeset": 61477477,
  "user": "0815jh007",
  "uid": 697257,
  "tags": {
    "addr:city": "Berlin",
    "addr:country": "DE",
    "addr:housenumber": "6",
    "addr:postcode": "12165",
    "addr:street": "Grunewaldstraße",
    "addr:suburb": "Steglitz",
    "contact:email": "info@radhaus-steglitz.de",
    "contact:fax": "030 - 72011879",
    "contact:phone": "030 - 72011880",
    "contact:website": "https://www.radhaus-steglitz.de",
    "name": "RTS RADtHAUS Steglitz",
    "opening_hours": "Mar-Oct: Mo-Fr 10:00-19:00, Sa 10:00-15:00; Nov-Feb: Mo-Fr 11:00-18:30, Sa 11:00-15:00; PH off",
    "shop": "bicycle",
    "wheelchair": "no"
  }
},
{
  "type": "node",
  "id": 322822419,
  "lat": 52.5284838,
  "lon": 13.4487062,
  "timestamp": "2016-01-03T11:54:17Z",
  "version": 11,
  "changeset": 36336351,
  "user": "atpl_pilot",
  "uid": 881429,
  "tags": {
    "addr:city": "Berlin",
    "addr:country": "DE",
    "addr:housenumber": "8",
    "addr:postcode": "10407",
    "addr:street": "Cotheniusstraße",
    "addr:suburb": "Prenzlauer Berg",
    "contact:fax": "+49 30 42161529",
    "contact:phone": "+49 30 4235500",
    "contact:website": "http://www.fahrrad-goerke.de/",
    "name": "Fahrrad Görke",
    "opening_hours": "Mo-Fr 10:00-20:00;Sa 09:00-13:00;Su,PH off",
    "owner": "Daniel Gau",
    "shop": "bicycle",
    "wheelchair": "no"
  }
},
{
  "type": "node",
  "id": 324335593,
  "lat": 52.5250945,
  "lon": 13.4427684,
  "timestamp": "2015-12-22T00:53:20Z",
  "version": 7,
  "changeset": 36097351,
  "user": "atpl_pilot",
  "uid": 881429,
  "tags": {
    "addr:city": "Berlin",
    "addr:country": "DE",
    "addr:housenumber": "53",
    "addr:postcode": "10249",
    "addr:street": "Landsberger Allee",
    "addr:suburb": "Friedrichshain",
    "contact:phone": "+49 30 49855848",
    "contact:website": "http://www.bikedudes-berlin.com",
    "name": "Bike Dudes",
    "shop": "bicycle",
    "wheelchair": "no"
  }
},
{
  "type": "node",
  "id": 324719995,
  "lat": 52.5190706,
  "lon": 13.4247142,
  "timestamp": "2015-12-22T00:54:39Z",
  "version": 6,
  "changeset": 36097351,
  "user": "atpl_pilot",
  "uid": 881429,
  "tags": {
    "addr:city": "Berlin",
    "addr:country": "DE",
    "addr:housenumber": "46",
    "addr:postcode": "10178",
    "addr:street": "Karl-Marx-Allee",
    "addr:suburb": "Mitte",
    "contact:website": "www.fahrradfloeckner.de",
    "name": "Fahrrad Flöckner",
    "shop": "bicycle",
    "wheelchair": "no"
  }
},
{
  "type": "node",
  "id": 331345205,
  "lat": 52.5089532,
  "lon": 13.4539392,
  "timestamp": "2016-01-04T18:49:08Z",
  "version": 11,
  "changeset": 36366356,
  "user": "atpl_pilot",
  "uid": 881429,
  "tags": {
    "addr:city": "Berlin",
    "addr:country": "DE",
    "addr:housenumber": "16",
    "addr:postcode": "10245",
    "addr:street": "Libauer Straße",
    "addr:suburb": "Friedrichshain",
    "contact:email": "hofrad@t-online.de",
    "contact:fax": "+49 30 29492009",
    "contact:phone": "+49 30 2924606",
    "contact:website": "http://www.hofrad.de/",
    "name": "Hofrad",
    "opening_hours": "Tu-Fr 14:00-20:00; Sa \"nach Vereinbarung\";Su,PH off",
    "owner": "Bert Kricheldorf",
    "shop": "bicycle",
    "wheelchair": "yes"
  }
},
{
  "type": "node",
  "id": 332967255,
  "lat": 52.5508177,
  "lon": 13.3852791,
  "timestamp": "2016-07-02T16:44:08Z",
  "version": 11,
  "changeset": 40444025,
  "user": "jacobbraeutigam",
  "uid": 1260280,
  "tags": {
    "addr:city": "Berlin",
    "addr:country": "DE",
    "addr:housenumber": "2",
    "addr:postcode": "13357",
    "addr:street": "Grüntaler Straße",
    "addr:suburb": "Gesundbrunnen",
    "email": "berlin-gesundbrunnen@littlejohnbikes.de",
    "fax": "+49 30 49308012",
    "name": "Little John Bikes",
    "opening_hours": "Mo-Fr 10:00-19:00; Sa 10:00-16:00",
    "phone": "+49 30 49308080",
    "shop": "bicycle",
    "website": "http://www.littlejohnbikes.de/shops/berlin-gesundbrunnen.html",
    "wheelchair": "yes"
  }
},
{
  "type": "node",
  "id": 333410805,
  "lat": 52.4813044,
  "lon": 13.4246610,
  "timestamp": "2017-08-19T14:48:21Z",
  "version": 5,
  "changeset": 51257935,
  "user": "TheBlackMan",
  "uid": 1468248,
  "tags": {
    "name": "Guido's Fahrradwelt",
    "opening_hours": "Mo-Fr 10:00-18:30, Sa 10:00-14:00",
    "shop": "bicycle",
    "wheelchair": "yes"
  }
},
{
  "type": "node",
  "id": 333419912,
  "lat": 52.4933653,
  "lon": 13.3793312,
  "timestamp": "2018-09-08T18:36:24Z",
  "version": 15,
  "changeset": 62408848,
  "user": "RobertJ",
  "uid": 88071,
  "tags": {
    "addr:city": "Berlin",
    "addr:housenumber": "47",
    "addr:postcode": "10963",
    "addr:street": "Möckernstraße",
    "addr:suburb": "Kreuzberg",
    "club": "sport",
    "contact:email": "kontakt@adfc-berlin.de",
    "contact:fax": "+49 30 44340520",
    "contact:phone": "+49 30 4484724",
    "contact:website": "http://www.adfc-berlin.de/",
    "description": "Fahrrad Buch- und Infoladen",
    "leisure": "club",
    "name": "ADFC Landesverband Berlin",
    "note": "bicycle self service",
    "opening_hours": "Tu-We 16:00-20:00; Fr 16:00-19:00; Apr-Sep: Sa 12:00-16:00; PH off",
    "operator": "ADFC",
    "service:bicycle:diy": "yes",
    "service:bicycle:pump": "yes",
    "service:bicycle:rental": "no",
    "service:bicycle:repair": "no",
    "service:bicycle:retail": "no",
    "shop": "bicycle",
    "sport": "cycling"
  }
},
{
  "type": "node",
  "id": 333429340,
  "lat": 52.4887589,
  "lon": 13.4080155,
  "timestamp": "2016-07-02T16:46:22Z",
  "version": 11,
  "changeset": 40444068,
  "user": "jacobbraeutigam",
  "uid": 1260280,
  "tags": {
    "addr:city": "Berlin",
    "addr:country": "DE",
    "addr:housenumber": "61",
    "addr:postcode": "10967",
    "addr:street": "Hasenheide",
    "addr:suburb": "Neukölln",
    "bicycle:air": "compressed_air;manometer=no",
    "compressed_air": "yes",
    "compressed_air:manometer": "yes",
    "email": "berlin-kreuzberg@littlejohnbikes.de",
    "fax": "+49 30 61203797",
    "name": "Little John Bikes",
    "opening_hours": "Mo-Fr 10:00-19:00; Sa 10:00-18:00",
    "phone": "+49 30 61203765",
    "shop": "bicycle",
    "website": "http://www.little-john-bikes.de",
    "wheelchair": "limited"
  }
},
{
  "type": "node",
  "id": 336605058,
  "lat": 52.5541762,
  "lon": 13.4239695,
  "timestamp": "2017-07-01T11:16:29Z",
  "version": 25,
  "changeset": 49962676,
  "user": "benoitberlin",
  "uid": 1197015,
  "tags": {
    "addr:city": "Berlin",
    "addr:country": "DE",
    "addr:housenumber": "3b",
    "addr:postcode": "13189",
    "addr:street": "Neumannstraße",
    "addr:suburb": "Pankow",
    "amenity": "bicycle_rental",
    "motorcycle:parts": "yes",
    "motorcycle:parts:brand": "Simson",
    "name": "Gönne's Zweirad-Center",
    "shop": "bicycle",
    "wheelchair": "yes"
  }
},
{
  "type": "node",
  "id": 366270329,
  "lat": 52.5027679,
  "lon": 13.4390291,
  "timestamp": "2014-06-26T10:35:13Z",
  "version": 3,
  "changeset": 23174319,
  "user": "shony",
  "uid": 117007,
  "tags": {
    "name": "Conrad",
    "opening_hours": "Mo,Tu,We,Fr 10:00-19:00; Sa 11:00-15:00",
    "operator": "Conrad",
    "phone": "+49 30 6153838",
    "shop": "bicycle",
    "website": "http://www.worldpacker.com/",
    "wheelchair": "no"
  }
},
{
  "type": "node",
  "id": 391337094,
  "lat": 52.5798278,
  "lon": 13.3970414,
  "timestamp": "2015-05-20T14:49:22Z",
  "version": 11,
  "changeset": 31305630,
  "user": "wheelmap_visitor",
  "uid": 290680,
  "tags": {
    "addr:city": "Berlin",
    "addr:country": "DE",
    "addr:housenumber": "8",
    "addr:postcode": "13156",
    "addr:street": "Pastor-Niemöller-Platz",
    "addr:suburb": "Niederschönhausen",
    "name": "Werner Otto",
    "opening_hours": "Mo-Fr 10:00-19:00; Sa 10:00-14:00",
    "phone": "+49309165246",
    "service:bicycle:repair": "yes",
    "service:bicycle:retail": "yes",
    "service:bicycle:second_hand": "yes",
    "shop": "bicycle",
    "website": "http://www.otto-bikes.de/",
    "wheelchair": "limited"
  }
},
{
  "type": "node",
  "id": 391337398,
  "lat": 52.5239597,
  "lon": 13.3320611,
  "timestamp": "2018-07-26T13:05:03Z",
  "version": 14,
  "changeset": 61088206,
  "user": "MKnight",
  "uid": 39774,
  "tags": {
    "addr:city": "Berlin",
    "addr:country": "DE",
    "addr:housenumber": "72",
    "addr:postcode": "10555",
    "addr:street": "Alt-Moabit",
    "addr:suburb": "Moabit",
    "contact:phone": "+49 30 39902116",
    "contact:website": "http://www.velophil.de",
    "email": "team@velophil.de",
    "name": "velophil.",
    "opening_hours": "Mo-We,Fr 10:00-19:00; Th 10:00-20:00; Sa 10:00-16:00",
    "phone_1": "+49 30 39902118",
    "service:bicycle:repair": "yes",
    "service:bicycle:retail": "yes",
    "shop": "bicycle",
    "wheelchair": "no"
  }
},
{
  "type": "node",
  "id": 391394177,
  "lat": 52.5375469,
  "lon": 13.4189939,
  "timestamp": "2015-12-20T06:33:28Z",
  "version": 5,
  "changeset": 36059354,
  "user": "atpl_pilot",
  "uid": 881429,
  "tags": {
    "amenity": "bicycle_rental",
    "name": "Fahrradstation am Kollwitzplatz",
    "shop": "bicycle",
    "website": "http://www.fahrradstation.com",
    "wheelchair": "no"
  }
},
{
  "type": "node",
  "id": 391401480,
  "lat": 52.4978444,
  "lon": 13.4299368,
  "timestamp": "2018-05-22T18:35:09Z",
  "version": 7,
  "changeset": 59188813,
  "user": "ATARI_forever",
  "uid": 2509929,
  "tags": {
    "bicycle:air": "compressed_air;manometer=no",
    "compressed_air": "yes",
    "compressed_air:manometer": "no",
    "name": "Froschrad",
    "note": "www.froschrad.de",
    "opening_hours": "Mo-Fr 10:00-19:00; Sa 10:00-15:00",
    "service:bicycle:diy": "yes",
    "service:bicycle:pump": "yes",
    "shop": "bicycle",
    "wheelchair": "no"
  }
},
{
  "type": "node",
  "id": 410135949,
  "lat": 52.5006905,
  "lon": 13.4218676,
  "timestamp": "2017-12-05T08:41:21Z",
  "version": 14,
  "changeset": 54357077,
  "user": "rené",
  "uid": 11529,
  "tags": {
    "addr:city": "Berlin",
    "addr:country": "DE",
    "addr:housenumber": "20-21",
    "addr:postcode": "10999",
    "addr:street": "Oranienstraße",
    "addr:suburb": "Kreuzberg",
    "contact:phone": "+49 30 6152388",
    "contact:website": "http://www.zentralrad.de",
    "name": "Zentralrad",
    "opening_hours": "Mo-Fr 10:00-19:00, Sa 10:00-16:00",
    "shop": "bicycle",
    "wheelchair": "yes"
  }
},
{
  "type": "node",
  "id": 411725896,
  "lat": 52.5198525,
  "lon": 13.2681233,
  "timestamp": "2017-06-26T16:55:36Z",
  "version": 4,
  "changeset": 49838271,
  "user": "wheelmap_android",
  "uid": 524500,
  "tags": {
    "name": "Fahrradambulanz",
    "shop": "bicycle",
    "website": "http://www.fahrradambulanz-berlin.de/index.html",
    "wheelchair": "yes"
  }
},
{
  "type": "node",
  "id": 415565657,
  "lat": 52.4851117,
  "lon": 13.3526606,
  "timestamp": "2014-11-13T19:50:55Z",
  "version": 13,
  "changeset": 26763787,
  "user": "Wall·E",
  "uid": 1109397,
  "tags": {
    "addr:city": "Berlin",
    "addr:country": "DE",
    "addr:housenumber": "63",
    "addr:postcode": "10823",
    "addr:street": "Eisenacher Straße",
    "addr:suburb": "Schöneberg",
    "name": "Fahrradfritze",
    "phone": "+49 30 7829339",
    "shop": "bicycle",
    "website": "http://www.fahrradfritze.de",
    "wheelchair": "no"
  }
},
{
  "type": "node",
  "id": 427964648,
  "lat": 52.5157005,
  "lon": 13.3262907,
  "timestamp": "2017-09-11T21:36:13Z",
  "version": 7,
  "changeset": 51955632,
  "user": "kartonage",
  "uid": 1497225,
  "tags": {
    "addr:city": "Berlin",
    "addr:country": "DE",
    "addr:housenumber": "25",
    "addr:postcode": "10587",
    "addr:street": "Einsteinufer",
    "addr:suburb": "Charlottenburg",
    "description": "Fahrrad-Selbsthilfe der TU",
    "name": "Unirad",
    "opening_hours": "Mo 18:00-21:00; Tu-We,Fr-Su off; Th 18:00-20:30",
    "repair": "only",
    "service:bicycle:diy": "yes",
    "shop": "bicycle",
    "website": "http://unirad.blogsport.de/",
    "wheelchair": "yes"
  }
},
{
  "type": "node",
  "id": 428509767,
  "lat": 52.5165462,
  "lon": 13.4649554,
  "timestamp": "2017-05-26T21:14:20Z",
  "version": 9,
  "changeset": 49012300,
  "user": "filip",
  "uid": 225568,
  "tags": {
    "addr:city": "Berlin",
    "addr:country": "DE",
    "addr:housenumber": "33",
    "addr:postcode": "10247",
    "addr:street": "Samariterstraße",
    "addr:suburb": "Friedrichshain",
    "name": "Rad Haus",
    "opening_hours": "Mo-Fr 10:00-19:00, Sa 10:00-14:00",
    "shop": "bicycle",
    "wheelchair": "no"
  }
},
{
  "type": "node",
  "id": 441611018,
  "lat": 52.4647379,
  "lon": 13.4512473,
  "timestamp": "2009-07-14T12:40:15Z",
  "version": 1,
  "changeset": 1826006,
  "user": "Ivash",
  "uid": 137099,
  "tags": {
    "name": "Radstätte",
    "shop": "bicycle"
  }
},
{
  "type": "node",
  "id": 442391663,
  "lat": 52.4498881,
  "lon": 13.3847369,
  "timestamp": "2015-12-25T10:00:38Z",
  "version": 8,
  "changeset": 36155740,
  "user": "Nakaner-repair",
  "uid": 2149259,
  "tags": {
    "addr:city": "Berlin",
    "addr:country": "DE",
    "addr:postcode": "12109",
    "addr:street": "Mariendorfer Damm",
    "name": "Fahrrad Krause",
    "operator": "Bodo Ramm",
    "shop": "bicycle",
    "wheelchair": "limited"
  }
},
{
  "type": "node",
  "id": 442603281,
  "lat": 52.5050101,
  "lon": 13.4769974,
  "timestamp": "2015-12-11T13:29:29Z",
  "version": 5,
  "changeset": 35884656,
  "user": "atpl_pilot",
  "uid": 881429,
  "tags": {
    "addr:city": "Berlin",
    "addr:country": "DE",
    "addr:housenumber": "115",
    "addr:postcode": "10317",
    "addr:street": "Pfarrstraße",
    "addr:suburb": "Rummelsburg",
    "name": "Pedalpower",
    "shop": "bicycle",
    "wheelchair": "yes"
  }
},
{
  "type": "node",
  "id": 442604620,
  "lat": 52.4916554,
  "lon": 13.3831832,
  "timestamp": "2017-07-22T15:07:51Z",
  "version": 9,
  "changeset": 50483268,
  "user": "HGSandhagen",
  "uid": 228662,
  "tags": {
    "addr:city": "Berlin",
    "addr:country": "DE",
    "addr:housenumber": "15",
    "addr:postcode": "10965",
    "addr:street": "Hagelberger Straße",
    "addr:suburb": "Kreuzberg",
    "name": "Pedalpower",
    "phone": "+49 30 78991939",
    "shop": "bicycle"
  }
},
{
  "type": "node",
  "id": 445063627,
  "lat": 52.5446481,
  "lon": 13.3675020,
  "timestamp": "2016-10-12T12:39:42Z",
  "version": 11,
  "changeset": 42829342,
  "user": "mischka",
  "uid": 11724,
  "tags": {
    "addr:city": "Berlin",
    "addr:country": "DE",
    "addr:housenumber": "52",
    "addr:postcode": "13347",
    "addr:street": "Gerichtstraße",
    "addr:suburb": "Wedding",
    "shop": "bicycle",
    "wheelchair": "limited",
    "wheelchair:description": "Rampe vorhanden, einfach fragen"
  }
},
{
  "type": "node",
  "id": 448603854,
  "lat": 52.4998023,
  "lon": 13.4324425,
  "timestamp": "2018-07-18T05:56:18Z",
  "version": 5,
  "changeset": 60821228,
  "user": "jfsldkfls",
  "uid": 2532920,
  "tags": {
    "name": "Radlust",
    "phone": "+49306151925",
    "shop": "bicycle",
    "website": "https://www.radlust.net/",
    "wheelchair": "limited"
  }
},
{
  "type": "node",
  "id": 454251016,
  "lat": 52.4902042,
  "lon": 13.4345168,
  "timestamp": "2017-11-13T13:54:31Z",
  "version": 7,
  "changeset": 53740202,
  "user": "ToJocham",
  "uid": 4952192,
  "tags": {
    "name": "Aysa Rad",
    "opening_hours": "Mar-Oct: Mo-Fr 10:00-19:00, Mar-Oct: Sa 10:00-14:00, Nov-Feb: Mo-Fr 10:00-17:00, Nov-Feb: Sa 10:00-14:00",
    "service:bicycle:pump": "yes",
    "service:bicycle:rental": "yes",
    "service:bicycle:repair": "yes",
    "service:bicycle:second_hand": "yes",
    "shop": "bicycle",
    "toilets:wheelchair": "no",
    "wheelchair": "no"
  }
},
{
  "type": "node",
  "id": 459668817,
  "lat": 52.5713740,
  "lon": 13.4084341,
  "timestamp": "2017-10-29T09:34:09Z",
  "version": 9,
  "changeset": 53336335,
  "user": "RoterEmil",
  "uid": 4179530,
  "tags": {
    "addr:city": "Berlin",
    "addr:country": "DE",
    "addr:housenumber": "5",
    "addr:postcode": "13187",
    "addr:street": "Ossietzkystraße",
    "addr:suburb": "Pankow",
    "contact:email": "info@radel-max.de",
    "name": "Radel Max",
    "opening_hours": "Mo-Fr 09:30-18:00; Sa 09:30-13:00",
    "phone": "+49 30 48095653",
    "shop": "bicycle",
    "website": "http://www.radel-max.de",
    "wheelchair": "no"
  }
},
{
  "type": "node",
  "id": 459785179,
  "lat": 52.5594281,
  "lon": 13.3356967,
  "timestamp": "2014-05-07T11:36:39Z",
  "version": 7,
  "changeset": 22185751,
  "user": "MorbZ",
  "uid": 42705,
  "tags": {
    "addr:city": "Berlin",
    "addr:country": "DE",
    "addr:housenumber": "97",
    "addr:postcode": "13349",
    "addr:street": "Müllerstraße",
    "addr:suburb": "Wedding",
    "name": "Fahrrad und Service",
    "shop": "bicycle",
    "wheelchair": "no"
  }
},
{
  "type": "node",
  "id": 466484781,
  "lat": 52.4775805,
  "lon": 13.4255798,
  "timestamp": "2017-06-06T02:35:15Z",
  "version": 11,
  "changeset": 49291938,
  "user": "Julianus Africanus",
  "uid": 604325,
  "tags": {
    "addr:city": "Berlin",
    "addr:country": "DE",
    "addr:housenumber": "1",
    "addr:postcode": "12049",
    "addr:street": "Herrfurthstraße",
    "name": "Terabyke - Der Fahrradladen",
    "opening_hours": "Mo-Fr 09:00-13:00,14:00-19:00, Sa 11:00-15:00",
    "shop": "bicycle",
    "wheelchair": "no"
  }
},
{
  "type": "node",
  "id": 468681194,
  "lat": 52.4855498,
  "lon": 13.3631612,
  "timestamp": "2014-09-01T17:51:30Z",
  "version": 8,
  "changeset": 25163905,
  "user": "jacobbraeutigam",
  "uid": 1260280,
  "tags": {
    "addr:city": "Berlin",
    "addr:country": "DE",
    "addr:housenumber": "48",
    "addr:postcode": "10829",
    "addr:street": "Kolonnenstraße",
    "addr:suburb": "Schöneberg",
    "name": "Fahrradschmiede",
    "phone": "+4930 782 78 98",
    "shop": "bicycle",
    "website": "http://www.fahrradschmiede-berlin.de/",
    "wheelchair": "no"
  }
},
{
  "type": "node",
  "id": 502551336,
  "lat": 52.4871074,
  "lon": 13.4315188,
  "timestamp": "2017-11-11T12:34:24Z",
  "version": 5,
  "changeset": 53689566,
  "user": "ToJocham",
  "uid": 4952192,
  "tags": {
    "name": "Radsport Hoffmann",
    "opening_hours": "Mo-Fr 09:30-18:00, Sa 10:00-13:00",
    "shop": "bicycle",
    "wheelchair": "yes"
  }
},
{
  "type": "node",
  "id": 506091638,
  "lat": 52.5130479,
  "lon": 13.4701170,
  "timestamp": "2010-03-16T16:39:25Z",
  "version": 4,
  "changeset": 4144627,
  "user": "Kivi",
  "uid": 120279,
  "tags": {
    "name": "Unplattbar",
    "shop": "bicycle"
  }
},
{
  "type": "node",
  "id": 518840723,
  "lat": 52.5481053,
  "lon": 13.4273908,
  "timestamp": "2017-08-19T22:48:58Z",
  "version": 11,
  "changeset": 51266748,
  "user": "llemfd732",
  "uid": 520299,
  "tags": {
    "addr:city": "Berlin",
    "addr:country": "DE",
    "addr:housenumber": "84",
    "addr:postcode": "10439",
    "addr:street": "Erich-Weinert-Straße",
    "addr:suburb": "Prenzlauer Berg",
    "bicycle:air": "compressed_air;manometer=yes",
    "compressed_air": "yes",
    "compressed_air:manometer": "no",
    "contact:phone": "+49 30 44039696",
    "name": "Fahrradschmiede",
    "shop": "bicycle",
    "wheelchair": "limited"
  }
},
{
  "type": "node",
  "id": 530766235,
  "lat": 52.5019709,
  "lon": 13.4256404,
  "timestamp": "2015-12-22T00:54:40Z",
  "version": 9,
  "changeset": 36097351,
  "user": "atpl_pilot",
  "uid": 881429,
  "tags": {
    "addr:city": "Berlin",
    "addr:country": "DE",
    "addr:housenumber": "81",
    "addr:postcode": "10997",
    "addr:street": "Waldemarstraße",
    "addr:suburb": "Kreuzberg",
    "contact:website": "http://fahrrad-kultour-kreuzberg.de/",
    "name": "Fahrrad Kultour Kreuzberg",
    "shop": "bicycle",
    "wheelchair": "yes"
  }
},
{
  "type": "node",
  "id": 549227414,
  "lat": 52.5462382,
  "lon": 13.5019638,
  "timestamp": "2017-06-02T14:54:29Z",
  "version": 5,
  "changeset": 49198962,
  "user": "sandrow75",
  "uid": 4445038,
  "tags": {
    "name": "FahrRADladen",
    "shop": "bicycle",
    "wheelchair": "yes"
  }
},
{
  "type": "node",
  "id": 568351060,
  "lat": 52.5376048,
  "lon": 13.4229074,
  "timestamp": "2018-07-21T19:46:18Z",
  "version": 14,
  "changeset": 60938119,
  "user": "joe2812",
  "uid": 7549553,
  "tags": {
    "addr:city": "Berlin",
    "addr:country": "DE",
    "addr:housenumber": "206",
    "addr:postcode": "10405",
    "addr:street": "Prenzlauer Allee",
    "addr:suburb": "Prenzlauer Berg",
    "email": "shop@boxbike.de",
    "internet_access": "wlan",
    "name": "Boxbike Faltrad Shop Berlin",
    "name:en": "Boxbike Folding Bike Store Berlin",
    "opening_hours": "Th-Fr 12:00-19:00, Sa 11:00-16:00",
    "phone": "030 60981861",
    "shop": "bicycle",
    "website": "http://box.bike"
  }
},
{
  "type": "node",
  "id": 588557544,
  "lat": 52.5490710,
  "lon": 13.4536490,
  "timestamp": "2018-06-30T12:44:21Z",
  "version": 9,
  "changeset": 60301813,
  "user": "gislars",
  "uid": 108133,
  "tags": {
    "addr:city": "Berlin",
    "addr:country": "DE",
    "addr:housenumber": "57",
    "addr:postcode": "13088",
    "addr:street": "Berliner Allee",
    "addr:suburb": "Weißensee",
    "name": "Fahrrad Otto",
    "opening_hours": "Mo-Fr 09:30-18:00; Sa 10:00-13:00",
    "phone": "+49 30 9253136",
    "shop": "bicycle",
    "website": "http://www.fahrradotto.de",
    "wheelchair": "limited"
  }
},
{
  "type": "node",
  "id": 638960128,
  "lat": 52.5079740,
  "lon": 13.4972512,
  "timestamp": "2015-06-04T16:24:30Z",
  "version": 4,
  "changeset": 31723508,
  "user": "webpassenger",
  "uid": 121533,
  "tags": {
    "amenity": "vending_machine",
    "vending": "bicycle_tube"
  }
},
{
  "type": "node",
  "id": 643494389,
  "lat": 52.5544204,
  "lon": 13.3851462,
  "timestamp": "2015-12-20T06:33:50Z",
  "version": 6,
  "changeset": 36059354,
  "user": "atpl_pilot",
  "uid": 881429,
  "tags": {
    "addr:city": "Berlin",
    "addr:country": "DE",
    "addr:housenumber": "93",
    "addr:postcode": "13357",
    "addr:street": "Bellermannstraße",
    "addr:suburb": "Gesundbrunnen",
    "contact:phone": "+49 30 4945018",
    "name": "Groehn Fahrradservice",
    "shop": "bicycle",
    "wheelchair": "no"
  }
},
{
  "type": "node",
  "id": 659513105,
  "lat": 52.4742123,
  "lon": 13.3079088,
  "timestamp": "2014-05-11T10:33:05Z",
  "version": 4,
  "changeset": 22267657,
  "user": "atpl_pilot",
  "uid": 881429,
  "tags": {
    "name": "Feine Räder",
    "opening_hours": "Tu-Fr 10:00-18:00; Sa 10:00-13:00",
    "shop": "bicycle",
    "wheelchair": "limited"
  }
},
{
  "type": "node",
  "id": 689153868,
  "lat": 52.4674877,
  "lon": 13.3304254,
  "timestamp": "2018-07-10T18:39:54Z",
  "version": 13,
  "changeset": 60586673,
  "user": "joe2812",
  "uid": 7549553,
  "tags": {
    "addr:city": "Berlin",
    "addr:country": "DE",
    "addr:housenumber": "17",
    "addr:postcode": "12161",
    "addr:street": "Roennebergstraße",
    "addr:suburb": "Friedenau",
    "name": "BikeLine",
    "opening_hours": "Mo-Fr 10:00-19:00; Sa 10:00-14:00",
    "shop": "bicycle",
    "website": "http://www.bikeline.net/",
    "wheelchair": "no"
  }
},
{
  "type": "node",
  "id": 697714215,
  "lat": 52.5327144,
  "lon": 13.4117354,
  "timestamp": "2014-05-15T10:32:07Z",
  "version": 3,
  "changeset": 22349735,
  "user": "shony",
  "uid": 117007,
  "tags": {
    "name": "radkraft",
    "opening_hours": "Mo-Fr 10:00-20:00; Sa 11:00-16:00",
    "shop": "bicycle",
    "website": "http://www.radkraft.de/",
    "wheelchair": "no"
  }
},
{
  "type": "node",
  "id": 697740265,
  "lat": 52.5324244,
  "lon": 13.4056879,
  "timestamp": "2016-10-26T18:37:54Z",
  "version": 8,
  "changeset": 43199534,
  "user": "ATARI_forever",
  "uid": 2509929,
  "tags": {
    "addr:city": "Berlin",
    "addr:country": "DE",
    "addr:housenumber": "82",
    "addr:postcode": "10119",
    "addr:street": "Fehrbelliner Straße",
    "addr:suburb": "Mitte",
    "contact:phone": "+493050576937",
    "contact:website": "http://www.zweitrad.de",
    "name": "Zweitrad",
    "opening_hours": "Tu-Fr 09:30-19:00; Sa 10:00-17:00",
    "phone": "03060936443",
    "shop": "bicycle",
    "wheelchair": "limited"
  }
},
{
  "type": "node",
  "id": 700775306,
  "lat": 52.5079774,
  "lon": 13.4973681,
  "timestamp": "2018-03-17T14:13:28Z",
  "version": 4,
  "changeset": 57267775,
  "user": "BER319",
  "uid": 3020814,
  "tags": {
    "name": "Radelkowski Fahrradladen",
    "opening_hours": "Mo 14:00-20:00, Tu-Fr 10:00-13:00,14:00-18:30",
    "shop": "bicycle",
    "wheelchair": "limited"
  }
},
{
  "type": "node",
  "id": 726689038,
  "lat": 52.5376018,
  "lon": 13.4236766,
  "timestamp": "2018-07-21T09:25:20Z",
  "version": 16,
  "changeset": 60926495,
  "user": "joe2812",
  "uid": 7549553,
  "tags": {
    "addr:city": "Berlin",
    "addr:country": "DE",
    "addr:housenumber": "50",
    "addr:postcode": "10405",
    "addr:street": "Prenzlauer Allee",
    "addr:suburb": "Prenzlauer Berg",
    "bicycle:air": "compressed_air;manometer=yes",
    "compressed_air": "yes",
    "compressed_air:manometer": "no",
    "contact:phone": "+493066401960",
    "name": "Rad der Stadt",
    "opening_hours": "Mo-Fr 10:00-20:00; Sa 10:00-16:00",
    "shop": "bicycle",
    "website": "http://radderstadt.de/",
    "wheelchair": "yes"
  }
},
{
  "type": "node",
  "id": 745726897,
  "lat": 52.4881265,
  "lon": 13.4324787,
  "timestamp": "2015-06-12T10:41:57Z",
  "version": 9,
  "changeset": 31916630,
  "user": "PatrickKaufmann",
  "uid": 364815,
  "tags": {
    "addr:city": "Berlin",
    "addr:country": "DE",
    "addr:housenumber": "13",
    "addr:postcode": "12047",
    "addr:street": "Pannierstraße",
    "addr:suburb": "Neukölln",
    "name": "Fahrradladen Velomondo",
    "phone": "+49 30 81864575",
    "shop": "bicycle",
    "website": "http://www.velomondo.de",
    "wheelchair": "limited"
  }
},
{
  "type": "node",
  "id": 759524115,
  "lat": 52.5394527,
  "lon": 13.4103869,
  "timestamp": "2017-11-11T15:03:46Z",
  "version": 14,
  "changeset": 53692749,
  "user": "alpha_14",
  "uid": 3266826,
  "tags": {
    "addr:city": "Berlin",
    "addr:country": "DE",
    "addr:housenumber": "10",
    "addr:postcode": "10435",
    "addr:street": "Kastanienallee",
    "addr:suburb": "Prenzlauer Berg",
    "bicycle:air": "compressed_air;manometer=no",
    "compressed_air": "yes",
    "compressed_air:manometer": "no",
    "contact:phone": "030 4492651",
    "name": "Fahrrad-Linke",
    "opening_hours": "Mo-Fr 10:00-19:00; Sa 10:00-14:00",
    "shop": "bicycle",
    "website": "http://www.fahrrad-linke.de",
    "wheelchair": "no"
  }
},
{
  "type": "node",
  "id": 759614852,
  "lat": 52.5190108,
  "lon": 13.4521169,
  "timestamp": "2017-04-17T16:02:36Z",
  "version": 6,
  "changeset": 47876536,
  "user": "wgnd",
  "uid": 3612441,
  "tags": {
    "addr:city": "Berlin",
    "addr:housenumber": "74b",
    "addr:postcode": "10249",
    "addr:street": "Petersburger Straße",
    "name": "Second Bike",
    "opening_hours": "Mo-Fr 11:00-19:00; Sa 11:00-18:00",
    "shop": "bicycle",
    "wheelchair": "no"
  }
},
{
  "type": "node",
  "id": 759624255,
  "lat": 52.5476211,
  "lon": 13.4107745,
  "timestamp": "2018-08-11T02:49:23Z",
  "version": 5,
  "changeset": 61556631,
  "user": "0815jh007",
  "uid": 697257,
  "tags": {
    "name": "Le GARD",
    "shop": "bicycle",
    "website": "http://fahrradlegard.de",
    "wheelchair": "no"
  }
},
{
  "type": "node",
  "id": 802697257,
  "lat": 52.4957766,
  "lon": 13.3608869,
  "timestamp": "2015-12-04T14:01:28Z",
  "version": 7,
  "changeset": 35747873,
  "user": "Rabeneule",
  "uid": 876021,
  "tags": {
    "addr:city": "Berlin",
    "addr:country": "DE",
    "addr:housenumber": "162",
    "addr:postcode": "10783",
    "addr:street": "Potsdamer Straße",
    "addr:suburb": "Schöneberg",
    "email": "berlinschoeneberg@littlejohnbikes.de",
    "name": "Little John Bikes",
    "opening_hours": "Mo-Fr 10:00-19:00; Sa 10:00-18:00",
    "phone": "+49 30 23627310",
    "shop": "bicycle",
    "toilets:wheelchair": "no",
    "website": "http://www.littlejohnbikes.de",
    "wheelchair": "yes"
  }
},
{
  "type": "node",
  "id": 856427505,
  "lat": 52.5056150,
  "lon": 13.4701148,
  "timestamp": "2016-03-15T17:55:15Z",
  "version": 11,
  "changeset": 37850574,
  "user": "webpassenger",
  "uid": 121533,
  "tags": {
    "addr:city": "Berlin",
    "addr:country": "DE",
    "addr:housenumber": "7",
    "addr:postcode": "10245",
    "addr:street": "Neue Bahnhofstraße",
    "addr:suburb": "Friedrichshain",
    "contact:phone": "+493032299542",
    "name": "Eldoradlo",
    "shop": "bicycle",
    "toilets:wheelchair": "no",
    "wheelchair": "no"
  }
},
{
  "type": "node",
  "id": 868772525,
  "lat": 52.5451460,
  "lon": 13.4271370,
  "timestamp": "2016-07-02T16:52:54Z",
  "version": 5,
  "changeset": 40444176,
  "user": "jacobbraeutigam",
  "uid": 1260280,
  "tags": {
    "email": "berlin-prenzlauerberg@littlejohnbikes.de",
    "fax": "+49 30 46796811",
    "name": "Little John Bikes",
    "opening_hours": "Mo-Fr 10:00-19:00; Sa 10:00-16:00",
    "phone": "+49 30 46796810",
    "service:bicycle:repair": "yes",
    "service:bicycle:retail": "yes",
    "shop": "bicycle",
    "website": "http://www.littlejohnbikes.de/shops/berlin-prenzlauer-berg.html"
  }
},
{
  "type": "node",
  "id": 869829178,
  "lat": 52.5036690,
  "lon": 13.4152900,
  "timestamp": "2016-08-03T18:31:47Z",
  "version": 10,
  "changeset": 41221048,
  "user": "Leonard Ehrenfried",
  "uid": 1877495,
  "tags": {
    "addr:city": "Berlin",
    "addr:country": "DE",
    "addr:housenumber": "25",
    "addr:postcode": "10999",
    "addr:street": "Dresdener Straße",
    "addr:suburb": "Kreuzberg",
    "atm": "no",
    "contact:phone": "+493061656940",
    "contact:website": "http://www.biker-shop-berlin.de/",
    "name": "Biker'Shop",
    "opening_hours": "Mo-Fr 09:30-19:00; Sa 09:30-15:00",
    "shop": "bicycle",
    "wheelchair": "limited"
  }
},
{
  "type": "node",
  "id": 894418877,
  "lat": 52.5326476,
  "lon": 13.4306236,
  "timestamp": "2015-12-22T01:01:29Z",
  "version": 11,
  "changeset": 36097351,
  "user": "atpl_pilot",
  "uid": 881429,
  "tags": {
    "addr:city": "Berlin",
    "addr:country": "DE",
    "addr:housenumber": "7",
    "addr:postcode": "10407",
    "addr:street": "Hufelandstraße",
    "addr:suburb": "Prenzlauer Berg",
    "bicycle:air": "manual_pump;manometer=yes",
    "contact:phone": "+49306078989",
    "contact:website": "http://www.fahrradkoppel.de/",
    "name": "fahrradkoppel",
    "opening_hours": "Mo-Sa 10:00-19:00",
    "service:bicycle:pump": "yes",
    "shop": "bicycle",
    "wheelchair": "no"
  }
},
{
  "type": "node",
  "id": 951313642,
  "lat": 52.5087862,
  "lon": 13.4554219,
  "timestamp": "2017-07-29T15:54:30Z",
  "version": 6,
  "changeset": 50675031,
  "user": "Jarek Piórkowski",
  "uid": 1768286,
  "tags": {
    "addr:city": "Berlin",
    "addr:housenumber": "20",
    "addr:postcode": "10245",
    "addr:street": "Simon-Dach-Straße",
    "contact:phone": "+49 30 70220472",
    "name": "The Gentle Jaunt",
    "opening_hours": "Tu-Fr 12:00-20:00; Sa 10:30-16:00",
    "shop": "bicycle"
  }
},
{
  "type": "node",
  "id": 958689800,
  "lat": 52.4603640,
  "lon": 13.4772666,
  "timestamp": "2010-11-08T11:05:04Z",
  "version": 2,
  "changeset": 6319554,
  "user": "shony",
  "uid": 117007,
  "tags": {
    "name": "Radsport Heinze",
    "opening_hours": "Mo-Fr 10:00-13:00,14:00-18:00",
    "phone": "+49 30 5327098",
    "shop": "bicycle"
  }
},
{
  "type": "node",
  "id": 1006711116,
  "lat": 52.4518673,
  "lon": 13.3156281,
  "timestamp": "2018-08-08T18:44:36Z",
  "version": 14,
  "changeset": 61477817,
  "user": "0815jh007",
  "uid": 697257,
  "tags": {
    "addr:city": "Berlin",
    "addr:country": "DE",
    "addr:housenumber": "64",
    "addr:postcode": "12203",
    "addr:street": "Hindenburgdamm",
    "addr:suburb": "Steglitz",
    "contact:email": "info@velocityberlin.de",
    "contact:phone": "+49 30 83203397",
    "contact:website": "http://www.velocityberlin.de",
    "name": "Velocity",
    "opening_hours": "Mo-Fr 10:00-18:30, Sa 10:00-14:00; PH off",
    "shop": "bicycle",
    "wheelchair": "no"
  }
},
{
  "type": "node",
  "id": 1006711214,
  "lat": 52.4456895,
  "lon": 13.3037789,
  "timestamp": "2015-12-22T08:32:21Z",
  "version": 12,
  "changeset": 36100269,
  "user": "atpl_pilot",
  "uid": 881429,
  "tags": {
    "addr:city": "Berlin",
    "addr:country": "DE",
    "addr:housenumber": "92",
    "addr:postcode": "12203",
    "addr:street": "Gardeschützenweg",
    "addr:suburb": "Lichterfelde",
    "contact:phone": "030 / 84 41 91 00",
    "name": "Radlos",
    "shop": "bicycle",
    "wheelchair": "limited"
  }
},
{
  "type": "node",
  "id": 1014605597,
  "lat": 52.5271249,
  "lon": 13.3517495,
  "timestamp": "2016-09-14T10:22:25Z",
  "version": 8,
  "changeset": 42145636,
  "user": "thihoa",
  "uid": 398055,
  "tags": {
    "addr:city": "Berlin",
    "addr:country": "DE",
    "addr:housenumber": "11",
    "addr:postcode": "10559",
    "addr:street": "Wilsnacker Straße",
    "addr:suburb": "Moabit",
    "contact:phone": "+493039902817",
    "name": "Fahrradshop Gerhardt",
    "operator": "Daniel Gerhardt",
    "shop": "bicycle",
    "website": "http://www.fahrradshop-gerhardt.de",
    "wheelchair": "yes"
  }
},
{
  "type": "node",
  "id": 1038084988,
  "lat": 52.5019102,
  "lon": 13.3053685,
  "timestamp": "2015-12-26T04:26:22Z",
  "version": 10,
  "changeset": 36169915,
  "user": "atpl_pilot",
  "uid": 881429,
  "tags": {
    "addr:city": "Berlin",
    "addr:country": "DE",
    "addr:housenumber": "54",
    "addr:postcode": "10629",
    "addr:street": "Sybelstraße",
    "addr:suburb": "Charlottenburg",
    "alt_name": "Radhaus in der City",
    "contact:website": "http://formelbike.de/",
    "name": "formelbike",
    "shop": "bicycle"
  }
},
{
  "type": "node",
  "id": 1082924067,
  "lat": 52.4903154,
  "lon": 13.4020907,
  "timestamp": "2015-06-04T18:15:56Z",
  "version": 15,
  "changeset": 31727040,
  "user": "TakeLifeEasy",
  "uid": 391621,
  "tags": {
    "addr:city": "Berlin",
    "addr:country": "DE",
    "addr:housenumber": "67",
    "addr:postcode": "10961",
    "addr:street": "Gneisenaustraße",
    "addr:suburb": "Kreuzberg",
    "email": "info@bikecoholics.de",
    "name": "Bike:co:holics",
    "opening_hours": "Mo-Fr 11:00-19:00",
    "phone": "+49 157 72959251",
    "service": "Bike Repair, Bikeresell & Buy",
    "shop": "bicycle",
    "website": "http://www.bikecoholics.de",
    "wheelchair": "limited"
  }
},
{
  "type": "node",
  "id": 1106283761,
  "lat": 52.4489291,
  "lon": 13.5078677,
  "timestamp": "2017-02-22T13:19:54Z",
  "version": 7,
  "changeset": 46307097,
  "user": "Livermersey",
  "uid": 3297442,
  "tags": {
    "addr:city": "Berlin",
    "addr:country": "DE",
    "addr:housenumber": "49",
    "addr:postcode": "12487",
    "addr:street": "Sterndamm",
    "addr:suburb": "Johannisthal",
    "name": "Radsporthaus Johannisthal",
    "opening_hours": "Mo-Fr 10:00-18:00; Sa 10:00-13:00",
    "phone": "+49 30 89567729",
    "shop": "bicycle",
    "website": "http://www.radsporthaus.de"
  }
},
{
  "type": "node",
  "id": 1106283875,
  "lat": 52.4490011,
  "lon": 13.5077884,
  "timestamp": "2011-01-16T15:55:37Z",
  "version": 1,
  "changeset": 6989242,
  "user": "Balgofil",
  "uid": 95702,
  "tags": {
    "amenity": "vending_machine",
    "vending": "bicycle_tube"
  }
},
{
  "type": "node",
  "id": 1111389554,
  "lat": 52.4643862,
  "lon": 13.3168875,
  "timestamp": "2015-12-22T08:03:31Z",
  "version": 7,
  "changeset": 36099841,
  "user": "atpl_pilot",
  "uid": 881429,
  "tags": {
    "addr:city": "Berlin",
    "addr:country": "DE",
    "addr:housenumber": "23",
    "addr:postcode": "12163",
    "addr:street": "Schildhornstraße",
    "addr:suburb": "Steglitz",
    "contact:email": "info@otto-neumann.de",
    "contact:fax": "030 / 797 41 235",
    "contact:phone": "030 / 791 65 02",
    "name": "Otto Neumann",
    "opening_hours": "Mo-Fr 09:00-18:00; Sa 09:00-13:00",
    "shop": "bicycle"
  }
},
{
  "type": "node",
  "id": 1120057575,
  "lat": 52.5822893,
  "lon": 13.4107014,
  "timestamp": "2013-02-20T07:20:03Z",
  "version": 6,
  "changeset": 15096412,
  "user": "geozeisig",
  "uid": 66391,
  "tags": {
    "addr:city": "Berlin",
    "addr:country": "DE",
    "addr:housenumber": "41",
    "addr:postcode": "13156",
    "addr:street": "Blankenburger Straße",
    "addr:suburb": "Niederschönhausen",
    "name": "FAHRRADTECHNIK NORD",
    "phone": "+49 30 91425299",
    "service:bicycle:repair": "yes",
    "service:bicycle:retail": "yes",
    "shop": "bicycle",
    "website": "http://www.fahrradtechnik-nord.de",
    "wheelchair": "no"
  }
},
{
  "type": "node",
  "id": 1147352021,
  "lat": 52.5506845,
  "lon": 13.4078677,
  "timestamp": "2018-08-29T22:16:53Z",
  "version": 9,
  "changeset": 62117166,
  "user": "wheelmap_visitor",
  "uid": 290680,
  "tags": {
    "addr:city": "Berlin",
    "addr:country": "DE",
    "addr:housenumber": "19",
    "addr:postcode": "10439",
    "addr:street": "Schönfließer Straße",
    "addr:suburb": "Prenzlauer Berg",
    "contact:phone": "+49 30 96088323",
    "name": "Cicli Berlinetta",
    "opening_hours": "Mo-Fr 12:00-20:00; Sa 12:00-17:00",
    "shop": "bicycle",
    "website": "http://www.cicli-berlinetta.de/",
    "wheelchair": "yes"
  }
},
{
  "type": "node",
  "id": 1161567830,
  "lat": 52.5332630,
  "lon": 13.3983210,
  "timestamp": "2018-03-05T15:18:50Z",
  "version": 9,
  "changeset": 56906766,
  "user": "ThomasAstra",
  "uid": 2187760,
  "tags": {
    "addr:city": "Berlin",
    "addr:country": "DE",
    "addr:housenumber": "171",
    "addr:postcode": "10119",
    "addr:street": "Brunnenstraße",
    "addr:suburb": "Mitte",
    "contact:phone": "+49304496389",
    "contact:website": "http://www.pedalum-mobile.de/",
    "name": "pedalum mobile",
    "opening_hours": "Mo-Fr 10:00-19:00; Sa 10:00-15:00",
    "service:bicycle:Bicycle_Sales_and_Service": "yes",
    "service:bicycle:parts": "yes",
    "service:bicycle:repair": "yes",
    "shop": "bicycle"
  }
},
{
  "type": "node",
  "id": 1166389947,
  "lat": 52.5486978,
  "lon": 13.4111095,
  "timestamp": "2013-03-07T07:27:58Z",
  "version": 5,
  "changeset": 15278818,
  "user": "geozeisig",
  "uid": 66391,
  "tags": {
    "addr:city": "Berlin",
    "addr:country": "DE",
    "addr:housenumber": "73",
    "addr:postcode": "10437",
    "addr:street": "Kopenhagener Straße",
    "addr:suburb": "Prenzlauer Berg",
    "name": "Wulf-Fahrräder A & V",
    "shop": "bicycle",
    "wheelchair": "limited"
  }
},
{
  "type": "node",
  "id": 1194597942,
  "lat": 52.5176061,
  "lon": 13.3053090,
  "timestamp": "2016-06-11T22:13:59Z",
  "version": 4,
  "changeset": 39961708,
  "user": "shentey",
  "uid": 60018,
  "tags": {
    "addr:housenumber": "115",
    "addr:postcode": "10585",
    "addr:street": "Otto-Suhr-Allee",
    "name": "Radsport Dörr",
    "phone": "+493034503636",
    "shop": "bicycle",
    "wheelchair": "yes"
  }
},
{
  "type": "node",
  "id": 1198352287,
  "lat": 52.4652499,
  "lon": 13.4863710,
  "timestamp": "2017-02-25T16:47:40Z",
  "version": 5,
  "changeset": 46397726,
  "user": "Livermersey",
  "uid": 3297442,
  "tags": {
    "addr:city": "Berlin",
    "addr:housenumber": "87",
    "addr:postcode": "12437",
    "addr:street": "Baumschulenstraße",
    "name": "Fahrräder Lemke",
    "opening_hours": "Mo 14:00-18:30; Tu-Fr 10:00-18:00",
    "shop": "bicycle",
    "wheelchair": "no"
  }
},
{
  "type": "node",
  "id": 1209659372,
  "lat": 52.4912437,
  "lon": 13.3856147,
  "timestamp": "2018-07-26T13:05:13Z",
  "version": 5,
  "changeset": 61088206,
  "user": "MKnight",
  "uid": 39774,
  "tags": {
    "name": "RadCompany",
    "opening_hours": "Mo-Fr 10:00-19:00, Sa 10:00-16:00",
    "phone": "+493068402700",
    "shop": "bicycle",
    "website": "http://www.radcompany.de/",
    "wheelchair": "yes"
  }
},
{
  "type": "node",
  "id": 1224503724,
  "lat": 52.4967936,
  "lon": 13.2926470,
  "timestamp": "2018-09-02T18:29:59Z",
  "version": 6,
  "changeset": 62226095,
  "user": "gkai",
  "uid": 74224,
  "tags": {
    "addr:postcode": "10711",
    "addr:street": "Westfälische Straße",
    "email": "mail@peaks-team.de",
    "fax": "+4930 890927 50",
    "name": "Peaks",
    "opening_hours": "Mo-Fr 10:00-18:30; Sa 10:00-13:30",
    "operator": "Schulz",
    "phone": "+4930 890927 49",
    "shop": "bicycle",
    "website": "http://www.peaks-team.de/",
    "wheelchair": "yes"
  }
},
{
  "type": "node",
  "id": 1227822938,
  "lat": 52.5113011,
  "lon": 13.2992902,
  "timestamp": "2017-09-13T18:38:23Z",
  "version": 11,
  "changeset": 52015800,
  "user": "alalongue",
  "uid": 40140,
  "tags": {
    "addr:city": "Berlin",
    "addr:country": "DE",
    "addr:housenumber": "62",
    "addr:postcode": "10627",
    "addr:street": "Bismarckstraße",
    "addr:suburb": "Charlottenburg",
    "contact:phone": "+49 30 3424040",
    "name": "Fahrradhaus Klein",
    "opening_hours": "Mo-Fr 10:00-18:00, Sa 10:00-14:00",
    "shop": "bicycle",
    "wheelchair": "limited"
  }
},
{
  "type": "node",
  "id": 1247073838,
  "lat": 52.4892120,
  "lon": 13.4527750,
  "timestamp": "2018-05-03T20:02:52Z",
  "version": 10,
  "changeset": 58659110,
  "user": "Threepwood",
  "uid": 131565,
  "tags": {
    "addr:city": "Berlin",
    "addr:country": "DE",
    "addr:housenumber": "2",
    "addr:postcode": "12435",
    "addr:street": "Plesser Straße",
    "addr:suburb": "Alt-Treptow",
    "name": "Goldsprint",
    "phone": "+49 30 53023839",
    "shop": "bicycle",
    "website": "http://www.goldsprint.de",
    "wheelchair": "no"
  }
},
{
  "type": "node",
  "id": 1254387809,
  "lat": 52.4919086,
  "lon": 13.3884782,
  "timestamp": "2014-09-01T17:51:30Z",
  "version": 7,
  "changeset": 25163905,
  "user": "jacobbraeutigam",
  "uid": 1260280,
  "tags": {
    "addr:city": "Berlin",
    "addr:country": "DE",
    "addr:housenumber": "2a",
    "addr:postcode": "10961",
    "addr:street": "Gneisenaustraße",
    "addr:suburb": "Kreuzberg",
    "email": "info@fahrradladen-mehringhof.de",
    "name": "Fahrradladen Mehringhof",
    "opening_hours": "Mo 12:00-19:00; Tu-Fr 10:00-19:00; Sa 11:00-15:00",
    "operator": "Sabine Schütze und Peter Stage GbR",
    "phone": "+49 30 6916027",
    "shop": "bicycle",
    "website": "http://www.fahrradladen-mehringhof.de/"
  }
},
{
  "type": "node",
  "id": 1256737684,
  "lat": 52.4944248,
  "lon": 13.4165321,
  "timestamp": "2012-05-05T14:23:45Z",
  "version": 2,
  "changeset": 11505198,
  "user": "wheelmap_visitor",
  "uid": 290680,
  "tags": {
    "name": "Mobilcenter",
    "shop": "bicycle",
    "wheelchair": "no"
  }
},
{
  "type": "node",
  "id": 1305276040,
  "lat": 52.4878332,
  "lon": 13.4316987,
  "timestamp": "2014-06-27T15:55:43Z",
  "version": 5,
  "changeset": 23222825,
  "user": "JanCBorchardt",
  "uid": 360480,
  "tags": {
    "addr:city": "Berlin",
    "addr:country": "DE",
    "addr:housenumber": "53a",
    "addr:postcode": "12047",
    "addr:street": "Pannierstraße",
    "addr:suburb": "Neukölln",
    "name": "Glücksvelo",
    "opening_hours": "Mo off;Tu-Fr 12:00-19:00;Sa 12:00-17:00;Su off",
    "phone": "+49 178 7455145",
    "shop": "bicycle",
    "website": "http://www.gluecksvelo.de/",
    "wheelchair": "limited"
  }
},
{
  "type": "node",
  "id": 1306551397,
  "lat": 52.5113369,
  "lon": 13.3983434,
  "timestamp": "2018-04-29T07:51:51Z",
  "version": 12,
  "changeset": 58520384,
  "user": "Protoxenus",
  "uid": 17966,
  "tags": {
    "addr:city": "Berlin",
    "addr:country": "DE",
    "addr:housenumber": "56",
    "addr:postcode": "10117",
    "addr:street": "Leipziger Straße",
    "addr:suburb": "Mitte",
    "contact:phone": "+49 30 28384848",
    "contact:website": "http://www.fahrradstation.de",
    "name": "Fahrradstation",
    "opening_hours": "Mo-Fr 10:00-16:00; Sa 16:00-16:00",
    "shop": "bicycle",
    "toilets:wheelchair": "no",
    "wheelchair": "yes"
  }
},
{
  "type": "node",
  "id": 1307115254,
  "lat": 52.4684914,
  "lon": 13.4317175,
  "timestamp": "2017-03-29T18:08:59Z",
  "version": 2,
  "changeset": 47268728,
  "user": "dAnjou",
  "uid": 273143,
  "tags": {
    "name": "Fahr mit Rad",
    "opening_hours": "Mo-Fr 10:00-18:30; Sa 10:00-14:30",
    "shop": "bicycle"
  }
},
{
  "type": "node",
  "id": 1307139596,
  "lat": 52.4959768,
  "lon": 13.4260577,
  "timestamp": "2017-03-18T15:21:53Z",
  "version": 15,
  "changeset": 46959157,
  "user": "timwenzel98",
  "uid": 3117866,
  "tags": {
    "addr:city": "Berlin",
    "addr:country": "DE",
    "addr:housenumber": "22",
    "addr:postcode": "10999",
    "addr:street": "Lausitzer Straße",
    "addr:suburb": "Kreuzberg",
    "amenity": "bicycle_rental",
    "contact:email": "kontakt@regenbogenfabrik.de",
    "contact:phone": "+49 30 6957950",
    "contact:website": "http://www.regenbogenfabrik.de/fahrrad.html",
    "email": "info@regenbogenfabrik.de",
    "identity": "solidarity_economy",
    "interaction": "diy_and_dit",
    "name": "Regenbogenfabrik Fahrrad-Selbsthilfe-Werkstatt",
    "note": "squatters' project too - how to tag?",
    "opening_hours": "Mo-Th 13:00-18:00; Fr 11:00-17:00",
    "provides": "learning_opportunities",
    "service:bicycle:diy": "yes",
    "source": "Solikon 2015",
    "wheelchair": "no"
  }
},
{
  "type": "node",
  "id": 1311844571,
  "lat": 52.5158141,
  "lon": 13.4622624,
  "timestamp": "2015-12-22T00:53:20Z",
  "version": 6,
  "changeset": 36097351,
  "user": "atpl_pilot",
  "uid": 881429,
  "tags": {
    "addr:city": "Berlin",
    "addr:country": "DE",
    "addr:housenumber": "35-37",
    "addr:postcode": "10247",
    "addr:street": "Frankfurter Allee",
    "addr:suburb": "Friedrichshain",
    "contact:phone": "+49 30 22329590",
    "contact:website": "http://bikeparkberlin.de/",
    "name": "BikePark Berlin",
    "opening_hours": "Mo-Fr 10:00-19:00;Sa 10:00-17:00",
    "shop": "bicycle",
    "wheelchair": "limited"
  }
},
{
  "type": "node",
  "id": 1325313483,
  "lat": 52.4883405,
  "lon": 13.3688972,
  "timestamp": "2016-04-04T22:59:15Z",
  "version": 3,
  "changeset": 38305009,
  "user": "Ilian",
  "uid": 214267,
  "tags": {
    "name": "Radaufnahme",
    "opening_hours": "Mo-Fr 11:00-19:00; Sa 16:00-20:00",
    "shop": "bicycle"
  }
},
{
  "type": "node",
  "id": 1333694312,
  "lat": 52.5352768,
  "lon": 13.4214683,
  "timestamp": "2015-12-22T00:54:42Z",
  "version": 11,
  "changeset": 36097351,
  "user": "atpl_pilot",
  "uid": 881429,
  "tags": {
    "addr:city": "Berlin",
    "addr:country": "DE",
    "addr:housenumber": "216",
    "addr:postcode": "10405",
    "addr:street": "Prenzlauer Allee",
    "addr:suburb": "Prenzlauer Berg",
    "contact:phone": "+4930 40 57 89 68",
    "contact:website": "http://www.familien-rad.de/",
    "name": "Familien-Rad",
    "shop": "bicycle",
    "wheelchair": "no"
  }
},
{
  "type": "node",
  "id": 1339008026,
  "lat": 52.5063495,
  "lon": 13.3152874,
  "timestamp": "2017-09-12T17:21:22Z",
  "version": 4,
  "changeset": 51980022,
  "user": "alalongue",
  "uid": 40140,
  "tags": {
    "addr:city": "Berlin",
    "addr:country": "DE",
    "addr:postcode": "10625",
    "addr:street": "Kantstraße",
    "name": "Radkuns trikot",
    "opening_hours": "Mo-Fr 13:00-18:00, Sa 11:00-14:00",
    "shop": "bicycle",
    "wheelchair": "limited"
  }
},
{
  "type": "node",
  "id": 1363110970,
  "lat": 52.5087870,
  "lon": 13.3208612,
  "timestamp": "2018-08-08T18:49:35Z",
  "version": 11,
  "changeset": 61477914,
  "user": "0815jh007",
  "uid": 697257,
  "tags": {
    "addr:city": "Berlin",
    "addr:country": "DE",
    "addr:housenumber": "79",
    "addr:postcode": "10623",
    "addr:street": "Goethestraße",
    "addr:suburb": "Charlottenburg",
    "entrance": "yes",
    "name": "Faltrad-Direktor",
    "opening_hours": "Tu-Fr 16:16-19:19, Sa 14:14-17:17",
    "phone": "+49 30 31 80 60 10",
    "shop": "bicycle",
    "website": "http://faltrad-direktor.de/",
    "wheelchair": "limited"
  }
},
{
  "type": "node",
  "id": 1363277789,
  "lat": 52.5272975,
  "lon": 13.3889878,
  "timestamp": "2018-02-09T16:24:23Z",
  "version": 11,
  "changeset": 56220894,
  "user": "28MzXP5-_uXH",
  "uid": 1940221,
  "tags": {
    "addr:city": "Berlin",
    "addr:country": "DE",
    "addr:housenumber": "220",
    "addr:postcode": "10115",
    "addr:street": "Torstraße",
    "addr:suburb": "Mitte",
    "contact:phone": "+49 30 28599750",
    "email": "fahrrad.frank@vsf-mail.de",
    "name": "Fahrrad Frank",
    "opening_hours": "Mo-Fr 10:00-19:00; Sa 10:00-17:00",
    "phone": "030 28599750",
    "service:bicycle:parts": "yes",
    "service:bicycle:pump": "yes",
    "service:bicycle:rental": "yes",
    "service:bicycle:repair": "yes",
    "service:bicycle:second_hand": "yes",
    "shop": "bicycle",
    "website": "http://www.fahrradfrank.de/",
    "wheelchair": "yes"
  }
},
{
  "type": "node",
  "id": 1395920551,
  "lat": 52.5354001,
  "lon": 13.4265353,
  "timestamp": "2018-07-21T09:25:31Z",
  "version": 3,
  "changeset": 60926495,
  "user": "joe2812",
  "uid": 7549553,
  "tags": {
    "amenity": "vending_machine",
    "brand": "Continental",
    "operator": "Ostrad",
    "payment:coins": "yes",
    "vending": "bicycle_tube"
  }
},
{
  "type": "node",
  "id": 1411619204,
  "lat": 52.4815883,
  "lon": 13.4410297,
  "timestamp": "2018-02-25T13:11:04Z",
  "version": 2,
  "changeset": 56660728,
  "user": "SupapleX",
  "uid": 418040,
  "tags": {
    "amenity": "compressed_air"
  }
},
{
  "type": "node",
  "id": 1447900795,
  "lat": 52.4930821,
  "lon": 13.4247259,
  "timestamp": "2015-12-22T00:54:41Z",
  "version": 6,
  "changeset": 36097351,
  "user": "atpl_pilot",
  "uid": 881429,
  "tags": {
    "addr:city": "Berlin",
    "addr:country": "DE",
    "addr:housenumber": "22-23",
    "addr:postcode": "12047",
    "addr:street": "Bürknerstraße",
    "addr:suburb": "Neukölln",
    "contact:phone": "0170 5826216",
    "contact:website": "http://www.fahrradsalon.com",
    "name": "Fahrradsalon",
    "opening_hours": "Mo-Sa 09:00-21:00",
    "service:bicycle:rental": "yes",
    "service:bicycle:repair": "yes",
    "service:bicycle:retail": "yes",
    "shop": "bicycle"
  }
},
{
  "type": "node",
  "id": 1447900799,
  "lat": 52.4932952,
  "lon": 13.4271180,
  "timestamp": "2017-08-12T09:30:47Z",
  "version": 6,
  "changeset": 51053271,
  "user": "rabon",
  "uid": 1972608,
  "tags": {
    "addr:city": "Berlin",
    "addr:country": "DE",
    "addr:housenumber": "29",
    "addr:postcode": "12047",
    "addr:street": "Bürknerstraße",
    "addr:suburb": "Neukölln",
    "contact:email": "info@velothek-berlin.de",
    "contact:website": "http://www.velothek-berlin.de/",
    "name": "Velothek",
    "service:bicycle:rental": "yes",
    "service:bicycle:repair": "yes",
    "service:bicycle:retail": "yes",
    "service:bicycle:second_hand": "yes",
    "shop": "bicycle",
    "wheelchair": "no"
  }
},
{
  "type": "node",
  "id": 1455853678,
  "lat": 52.4916820,
  "lon": 13.4290517,
  "timestamp": "2016-11-09T18:46:19Z",
  "version": 2,
  "changeset": 43517958,
  "user": "SupapleX",
  "uid": 418040,
  "tags": {
    "name": "Zweirad Werkstatt",
    "service:bicycle:repair": "yes",
    "service:bicycle:retail": "no",
    "shop": "bicycle"
  }
},
{
  "type": "node",
  "id": 1538359009,
  "lat": 52.5400259,
  "lon": 13.4054135,
  "timestamp": "2017-05-20T12:21:02Z",
  "version": 4,
  "changeset": 48841775,
  "user": "DRueskamp",
  "uid": 5973259,
  "tags": {
    "addr:housenumber": "35",
    "addr:street": "Oderberger Straße",
    "name": "Rembetis",
    "phone": "049304634883",
    "shop": "bicycle",
    "website": "http://www.rembetis.de",
    "wheelchair": "limited"
  }
},
{
  "type": "node",
  "id": 1552074525,
  "lat": 52.5271805,
  "lon": 13.3985424,
  "timestamp": "2017-03-23T13:17:04Z",
  "version": 3,
  "changeset": 47096920,
  "user": "Kiwi",
  "uid": 7668,
  "tags": {
    "addr:city": "Berlin",
    "addr:country": "DE",
    "addr:housenumber": "29A",
    "addr:postcode": "10119",
    "addr:street": "Auguststraße",
    "addr:suburb": "Mitte",
    "name": "Fahrradstation",
    "opening_hours": "Mo-Fr 10:00-19:00; Sa 10:00-18:00",
    "service:bicycle:pump": "yes",
    "service:bicycle:rental": "yes",
    "service:bicycle:repair": "yes",
    "service:bicycle:retail": "yes",
    "service:bicycle:second_hand": "no",
    "shop": "bicycle",
    "website": "http://www.fahrradstation.com"
  }
},
{
  "type": "node",
  "id": 1573874894,
  "lat": 52.4981096,
  "lon": 13.4283643,
  "timestamp": "2017-01-01T09:05:28Z",
  "version": 5,
  "changeset": 44818947,
  "user": "FvGordon",
  "uid": 161619,
  "tags": {
    "addr:city": "Berlin",
    "addr:country": "DE",
    "addr:housename": "2. HH Remise",
    "addr:housenumber": "13",
    "addr:postcode": "10999",
    "addr:street": "Wiener Straße",
    "contact:email": "info@dailybreadcycles.net",
    "contact:website": "http://www.dailybreadcycles.net",
    "name": "Dailybread Cycles",
    "service:bicycle:repair": "yes",
    "service:bicycle:retail": "yes",
    "shop": "bicycle"
  }
},
{
  "type": "node",
  "id": 1592359971,
  "lat": 52.4733432,
  "lon": 13.2962618,
  "timestamp": "2018-02-06T05:30:39Z",
  "version": 4,
  "changeset": 56105632,
  "user": "SergeantBiggs",
  "uid": 7151606,
  "tags": {
    "addr:city": "Berlin",
    "addr:housenumber": "46",
    "addr:postcode": "14199",
    "addr:street": "Breite Straße",
    "name": "Fahradhof",
    "opening_hours": "Mo-Fr 10:00-18:00, Sa 10:00-13:00",
    "phone": "+49 30 823 49 42",
    "service:bicycle:repair": "yes",
    "service:bicycle:sales": "yes",
    "shop": "bicycle"
  }
},
{
  "type": "node",
  "id": 1602162092,
  "lat": 52.5280975,
  "lon": 13.4096126,
  "timestamp": "2015-12-22T01:00:42Z",
  "version": 8,
  "changeset": 36097351,
  "user": "atpl_pilot",
  "uid": 881429,
  "tags": {
    "addr:city": "Berlin",
    "addr:country": "DE",
    "addr:housenumber": "223a",
    "addr:postcode": "10119",
    "addr:street": "Linienstraße",
    "addr:suburb": "Mitte",
    "contact:website": "http://www.veloline-berlin.de",
    "name": "VeloLine",
    "shop": "bicycle",
    "wheelchair": "no"
  }
},
{
  "type": "node",
  "id": 1604783365,
  "lat": 52.4914242,
  "lon": 13.4258091,
  "timestamp": "2016-11-01T17:06:27Z",
  "version": 8,
  "changeset": 43330829,
  "user": "geozeisig",
  "uid": 66391,
  "tags": {
    "addr:city": "Berlin",
    "addr:country": "DE",
    "addr:housenumber": "75",
    "addr:postcode": "12047",
    "addr:street": "Pflügerstraße",
    "addr:suburb": "Neukölln",
    "name": "Fahrrad- und Mopedladen",
    "operator": "André Gerloff",
    "service:bicycle:retail": "yes",
    "shop": "bicycle",
    "wheelchair": "yes"
  }
},
{
  "type": "node",
  "id": 1704864883,
  "lat": 52.4594047,
  "lon": 13.3862488,
  "timestamp": "2015-01-28T18:05:40Z",
  "version": 8,
  "changeset": 28470922,
  "user": "atpl_pilot",
  "uid": 881429,
  "tags": {
    "addr:city": "Berlin",
    "addr:country": "DE",
    "addr:housenumber": "3",
    "addr:postcode": "12099",
    "addr:street": "Kaiserin-Augusta-Straße",
    "addr:suburb": "Tempelhof",
    "contact:fax": "+49 30 75008549",
    "contact:phone": "+49 30 75704999",
    "contact:website": "http://heinrichs-fahrradladen.de/",
    "name": "Heinrichs Fahrradladen",
    "opening_hours": "Mo-Fr 10:00-19:00; Sa 10:00-14:00",
    "shop": "bicycle",
    "wheelchair": "no"
  }
},
{
  "type": "node",
  "id": 1718668798,
  "lat": 52.5446167,
  "lon": 13.4230187,
  "timestamp": "2015-12-20T06:36:53Z",
  "version": 7,
  "changeset": 36059354,
  "user": "atpl_pilot",
  "uid": 881429,
  "tags": {
    "addr:city": "Berlin",
    "addr:country": "DE",
    "addr:housenumber": "55a",
    "addr:postcode": "10437",
    "addr:street": "Stargarder Straße",
    "addr:suburb": "Prenzlauer Berg",
    "contact:phone": "+49 30 39031640",
    "name": "Wheels of steel",
    "opening_hours": "Mo-Fr 10:00-19:00;Sa 11:00-18:00; Apr-Sep: Mo-Fr 10:00-21:00 ;Sa 11:00-20:0",
    "service:bicycle:rental": "yes",
    "service:bicycle:repair": "yes",
    "service:bicycle:retail": "yes",
    "service:bicycle:second_hand": "yes",
    "shop": "bicycle",
    "wheelchair": "limited"
  }
},
{
  "type": "node",
  "id": 1723603487,
  "lat": 52.5328268,
  "lon": 13.4353289,
  "timestamp": "2013-06-07T09:11:14Z",
  "version": 2,
  "changeset": 16452398,
  "user": "wheelmap_visitor",
  "uid": 290680,
  "tags": {
    "name": "Bötzow Rad Berlin",
    "opening_hours": "Mo-Fr 10:00-19:00; Sa 10:00-16:00",
    "service:bicycle:repair": "yes",
    "service:bicycle:retail": "yes",
    "service:bicycle:second_hand": "yes",
    "shop": "bicycle",
    "website": "http://www.boetzowrad.de/",
    "wheelchair": "limited"
  }
},
{
  "type": "node",
  "id": 1739766994,
  "lat": 52.5252898,
  "lon": 13.3395395,
  "timestamp": "2018-07-12T13:17:52Z",
  "version": 7,
  "changeset": 60652735,
  "user": "joe2812",
  "uid": 7549553,
  "tags": {
    "addr:city": "Berlin",
    "addr:country": "DE",
    "addr:housenumber": "22",
    "addr:postcode": "10555",
    "addr:street": "Krefelder Straße",
    "addr:suburb": "Moabit",
    "name": "Norm-Radstation",
    "opening_hours": "Mo-Fr 10:00-18:30; Sa 10:30-14:30",
    "phone": "+49 30 530 823 97",
    "shop": "bicycle",
    "website": "http://www.norm-radstation.de/",
    "wheelchair": "no"
  }
},
{
  "type": "node",
  "id": 1743992355,
  "lat": 52.5300017,
  "lon": 13.4243072,
  "timestamp": "2017-11-10T20:16:13Z",
  "version": 8,
  "changeset": 53676724,
  "user": "Senior-Coconut",
  "uid": 3199532,
  "tags": {
    "addr:city": "Berlin",
    "addr:country": "DE",
    "addr:housenumber": "6",
    "addr:postcode": "10405",
    "addr:street": "Heinrich-Roller-Straße",
    "addr:suburb": "Prenzlauer Berg",
    "name": "Fahrradservice und mehr",
    "service:bicycle:repair": "yes",
    "shop": "bicycle",
    "wheelchair": "limited"
  }
},
{
  "type": "node",
  "id": 1805065784,
  "lat": 52.5410602,
  "lon": 13.4172670,
  "timestamp": "2014-09-01T17:51:29Z",
  "version": 4,
  "changeset": 25163905,
  "user": "jacobbraeutigam",
  "uid": 1260280,
  "tags": {
    "addr:city": "Berlin",
    "addr:country": "DE",
    "addr:housenumber": "4",
    "addr:postcode": "10437",
    "addr:street": "Schliemannstraße",
    "addr:suburb": "Prenzlauer Berg",
    "name": "Fahrrad-Garage",
    "shop": "bicycle"
  }
},
{
  "type": "node",
  "id": 1834091926,
  "lat": 52.4827703,
  "lon": 13.4383457,
  "timestamp": "2018-07-12T13:06:05Z",
  "version": 6,
  "changeset": 60652318,
  "user": "kaaaalt",
  "uid": 8533341,
  "tags": {
    "addr:housenumber": "1",
    "addr:postcode": "12045",
    "addr:street": "Elbestraße",
    "amenity": "bicycle_rental",
    "email": "info@mogool-bikes.de",
    "fax": "030 54 48 83 90",
    "name": "Moghul Rikschas",
    "opening_hours": "We-Fr 12:00-19:00; Sa 10:00-16:00",
    "operator": "Neumann und Rosenau GbR",
    "phone": "030 54 48 83 93",
    "shop": "bicycle",
    "website": "http://mogool-bikes.com/",
    "wheelchair": "yes"
  }
},
{
  "type": "node",
  "id": 1870414832,
  "lat": 52.4969922,
  "lon": 13.3497552,
  "timestamp": "2018-07-15T20:35:23Z",
  "version": 15,
  "changeset": 60740313,
  "user": "joe2812",
  "uid": 7549553,
  "tags": {
    "addr:city": "Berlin",
    "addr:country": "DE",
    "addr:housenumber": "109",
    "addr:postcode": "10777",
    "addr:street": "Eisenacher Straße",
    "addr:suburb": "Schöneberg",
    "amenity": "bicycle_rental",
    "name": "Bike Shop Schöneberg",
    "phone": "+49 30 21912030",
    "shop": "bicycle",
    "toilets:wheelchair": "no",
    "website": "http://www.bikeshop-schoeneberg.de",
    "wheelchair": "yes"
  }
},
{
  "type": "node",
  "id": 1933968732,
  "lat": 52.5192956,
  "lon": 13.3910811,
  "timestamp": "2013-01-16T13:09:44Z",
  "version": 3,
  "changeset": 14672298,
  "user": "geozeisig",
  "uid": 66391,
  "tags": {
    "addr:city": "Berlin",
    "addr:country": "DE",
    "addr:housenumber": "30",
    "addr:postcode": "10117",
    "addr:street": "Dorotheenstraße",
    "addr:suburb": "Mitte",
    "name": "Fahrradstation",
    "shop": "bicycle"
  }
},
{
  "type": "node",
  "id": 1954982655,
  "lat": 52.4737833,
  "lon": 13.4422908,
  "timestamp": "2018-07-11T16:57:01Z",
  "version": 8,
  "changeset": 60621585,
  "user": "kaaaalt",
  "uid": 8533341,
  "tags": {
    "addr:city": "Berlin",
    "addr:country": "DE",
    "addr:housenumber": "14",
    "addr:postcode": "12043",
    "addr:street": "Karl-Marx-Platz",
    "addr:suburb": "Neukölln",
    "contact:phone": "030 75522011",
    "name": "Rixdorfer Radshop",
    "opening_hours": "Mo-Sa 10:00-20:00",
    "shop": "bicycle"
  }
},
{
  "type": "node",
  "id": 2021286682,
  "lat": 52.5739419,
  "lon": 13.3593132,
  "timestamp": "2017-11-17T19:11:25Z",
  "version": 7,
  "changeset": 53883497,
  "user": "Zanoza",
  "uid": 3486591,
  "tags": {
    "name": "edelweiß bikes",
    "shop": "bicycle"
  }
},
{
  "type": "node",
  "id": 2086361727,
  "lat": 52.4903255,
  "lon": 13.3924263,
  "timestamp": "2015-11-17T10:07:29Z",
  "version": 4,
  "changeset": 35372111,
  "user": "slhck",
  "uid": 716804,
  "tags": {
    "addr:city": "Berlin",
    "addr:housenumber": "34",
    "addr:postcode": "10961",
    "addr:street": "Solmsstraße",
    "addr:suburb": "Kreuzberg",
    "name": "Bike Shop",
    "service:bicycle:rental": "yes",
    "service:bicycle:repair": "yes",
    "service:bicycle:second_hand": "yes",
    "shop": "bicycle",
    "wheelchair": "no"
  }
},
{
  "type": "node",
  "id": 2114324118,
  "lat": 52.5011838,
  "lon": 13.4431515,
  "timestamp": "2015-12-26T13:29:15Z",
  "version": 6,
  "changeset": 36176381,
  "user": "Nakaner-repair",
  "uid": 2149259,
  "tags": {
    "addr:city": "Berlin",
    "addr:country": "DE",
    "addr:housenumber": "5",
    "addr:postcode": "10997",
    "addr:street": "Oberbaumstraße",
    "addr:suburb": "Kreuzberg",
    "name": "Keirin Culture Cycle Café",
    "shop": "bicycle",
    "website": "http://keirinberlin.de"
  }
},
{
  "type": "node",
  "id": 2114329029,
  "lat": 52.5128486,
  "lon": 13.4493816,
  "timestamp": "2017-03-21T19:48:07Z",
  "version": 9,
  "changeset": 47049437,
  "user": "Hakuch2",
  "uid": 4792401,
  "tags": {
    "addr:city": "Berlin",
    "addr:country": "DE",
    "addr:housenumber": "12",
    "addr:postcode": "10243",
    "addr:street": "Grünberger Straße",
    "addr:suburb": "Friedrichshain",
    "name": "Antrieb",
    "opening_hours": "Sa 10:00-14:00; Mo-Fr 10:00-19:00",
    "shop": "bicycle",
    "wheelchair": "limited",
    "wheelchair:description": "Inhaber hilft gern und trägt den Rollstuhl hoch."
  }
},
{
  "type": "node",
  "id": 2139861392,
  "lat": 52.4962246,
  "lon": 13.3114819,
  "timestamp": "2016-01-02T02:48:59Z",
  "version": 4,
  "changeset": 36310291,
  "user": "atpl_pilot",
  "uid": 881429,
  "tags": {
    "addr:city": "Berlin",
    "addr:country": "DE",
    "addr:housenumber": "55",
    "addr:postcode": "10707",
    "addr:street": "Konstanzer Straße",
    "contact:email": "mail@fahrradbox.com",
    "contact:fax": "+49 30 88912655",
    "contact:phone": "+49 30 8911896",
    "contact:website": "http://www.fahrradbox.com",
    "name": "Fahrrad Box",
    "opening_hours": "Mo-Fr 10:00-18:00; Sa 10:00-14:00;Su,PH off",
    "shop": "bicycle"
  }
},
{
  "type": "node",
  "id": 2148260153,
  "lat": 52.5688322,
  "lon": 13.3996018,
  "timestamp": "2017-04-22T16:28:59Z",
  "version": 7,
  "changeset": 48038038,
  "user": "Kiwi",
  "uid": 7668,
  "tags": {
    "addr:city": "Berlin",
    "addr:country": "DE",
    "addr:housenumber": "2",
    "addr:postcode": "13187",
    "addr:street": "Wollankstraße",
    "addr:suburb": "Pankow",
    "name": "Family Bike",
    "opening_hours": "Mo-Fr 10:00-18:30; Sa 10:00-14:00",
    "phone": "+49 030 49988751",
    "shop": "bicycle",
    "source": "local_knowledge",
    "website": "http://www.familybike.eu"
  }
},
{
  "type": "node",
  "id": 2173396836,
  "lat": 52.5107039,
  "lon": 13.4624358,
  "timestamp": "2016-04-15T15:18:51Z",
  "version": 7,
  "changeset": 38591450,
  "user": "MagicJ",
  "uid": 3828488,
  "tags": {
    "addr:city": "Berlin",
    "addr:country": "DE",
    "addr:housenumber": "90",
    "addr:postcode": "10245",
    "addr:street": "Grünberger Straße",
    "addr:suburb": "Friedrichshain",
    "contact:website": "http://www.zumgoldenenlenker.de/",
    "email": "kontakt@zumgoldenenlenker.de",
    "name": "Zum goldenen Lenker",
    "opening_hours": "Mo-Fr 09:00-20:00; Sa 10:00-18:00",
    "phone": "+49 30 42088000",
    "shop": "bicycle",
    "wheelchair": "no"
  }
},
{
  "type": "node",
  "id": 2183538441,
  "lat": 52.4940075,
  "lon": 13.3234096,
  "timestamp": "2017-12-17T23:50:36Z",
  "version": 4,
  "changeset": 54716666,
  "user": "marc__marc",
  "uid": 7272314,
  "tags": {
    "addr:city": "Berlin",
    "addr:country": "DE",
    "addr:postcode": "10719",
    "addr:street": "Uhlandstraße",
    "addr:suburb": "Wilmersdorf",
    "name": "Bike Market City",
    "opening_hours": "Mo-Fr 10:00-19:00; Sa 10:00-17:00",
    "shop": "bicycle",
    "wheelchair": "limited",
    "wheelchair:description": "Stufenloser Zugang über den Hof zum Zugang Werkstatt."
  }
},
{
  "type": "node",
  "id": 2213746927,
  "lat": 52.4644331,
  "lon": 13.3777373,
  "timestamp": "2018-08-08T18:53:14Z",
  "version": 7,
  "changeset": 61477991,
  "user": "0815jh007",
  "uid": 697257,
  "tags": {
    "addr:city": "Berlin",
    "addr:country": "DE",
    "addr:housenumber": "64",
    "addr:inclusion": "actual",
    "addr:postcode": "12103",
    "addr:street": "Manteuffelstraße",
    "addr:suburb": "Tempelhof",
    "name": "bikes & parts",
    "opening_hours": "Mo-Fr 10:00-13:00,14:00-18:00; Sa 10:00-13:00",
    "shop": "bicycle",
    "website": "https://www.bike-parts-shop.de"
  }
},
{
  "type": "node",
  "id": 2224736698,
  "lat": 52.5240012,
  "lon": 13.3320824,
  "timestamp": "2018-01-12T16:48:12Z",
  "version": 2,
  "changeset": 55385342,
  "user": "sandrow75",
  "uid": 4445038,
  "tags": {
    "amenity": "vending_machine",
    "payment:coins": "yes",
    "vending": "bicycle_tube"
  }
},
{
  "type": "node",
  "id": 2224736699,
  "lat": 52.5376420,
  "lon": 13.4237018,
  "timestamp": "2018-07-21T09:25:44Z",
  "version": 4,
  "changeset": 60926495,
  "user": "joe2812",
  "uid": 7549553,
  "tags": {
    "addr:city": "Berlin",
    "addr:country": "DE",
    "addr:housenumber": "50",
    "addr:postcode": "10405",
    "addr:street": "Prenzlauer Allee",
    "addr:suburb": "Prenzlauer Berg",
    "amenity": "vending_machine",
    "brand": "Schwalbe",
    "operator": "Rad der Stadt",
    "payment:coins": "yes",
    "vending": "bicycle_tube"
  }
},
{
  "type": "node",
  "id": 2291818712,
  "lat": 52.4664191,
  "lon": 13.3304313,
  "timestamp": "2014-09-01T23:15:28Z",
  "version": 3,
  "changeset": 25170126,
  "user": "jacobbraeutigam",
  "uid": 1260280,
  "tags": {
    "addr:city": "Berlin",
    "addr:country": "DE",
    "addr:housenumber": "45",
    "addr:postcode": "12161",
    "addr:street": "Rheinstraße",
    "addr:suburb": "Friedenau",
    "name": "Pasculli",
    "phone": "+493085401289",
    "shop": "bicycle",
    "website": "http://pasculli.de/",
    "wheelchair": "no"
  }
},
{
  "type": "node",
  "id": 2298418676,
  "lat": 52.5478838,
  "lon": 13.3634362,
  "timestamp": "2013-05-10T15:22:00Z",
  "version": 1,
  "changeset": 16065994,
  "user": "MorbZ",
  "uid": 42705,
  "tags": {
    "name": "Fahrrad Service",
    "shop": "bicycle"
  }
},
{
  "type": "node",
  "id": 2299002157,
  "lat": 52.5030115,
  "lon": 13.4071844,
  "timestamp": "2013-05-10T23:52:17Z",
  "version": 1,
  "changeset": 16073105,
  "user": "wicking",
  "uid": 102755,
  "tags": {
    "name": "buntesRad",
    "phone": "+49-30-85979440",
    "service:bicycle:repair": "yes",
    "service:bicycle:retail": "yes",
    "service:bicycle:second_hand": "yes",
    "shop": "bicycle",
    "website": "http://www.buntesrad.de"
  }
},
{
  "type": "node",
  "id": 2303055275,
  "lat": 52.5484373,
  "lon": 13.3673416,
  "timestamp": "2015-12-20T06:35:46Z",
  "version": 6,
  "changeset": 36059354,
  "user": "atpl_pilot",
  "uid": 881429,
  "tags": {
    "addr:city": "Berlin",
    "addr:country": "DE",
    "addr:housenumber": "5",
    "addr:postcode": "13347",
    "addr:street": "Schererstraße",
    "addr:suburb": "Wedding",
    "contact:phone": "+49 30 4551041",
    "name": "Radhaus Wedding",
    "shop": "bicycle",
    "website": "www.radhaus-wedding.de"
  }
},
{
  "type": "node",
  "id": 2334683943,
  "lat": 52.4633876,
  "lon": 13.3301598,
  "timestamp": "2013-06-07T11:49:17Z",
  "version": 2,
  "changeset": 16456407,
  "user": "alexander2010",
  "uid": 354739,
  "tags": {
    "amenity": "vending_machine",
    "brand": "Continental",
    "operator": "Fahrradhof Steglitz",
    "payment:american_express": "no",
    "payment:coins": "yes",
    "payment:diners_club": "no",
    "payment:discover_card": "no",
    "payment:laser": "no",
    "payment:maestro": "no",
    "payment:mastercard": "no",
    "payment:notes": "no",
    "payment:visa": "no",
    "vending": "bicycle_tube"
  }
},
{
  "type": "node",
  "id": 2379184597,
  "lat": 52.5247792,
  "lon": 13.3422989,
  "timestamp": "2016-09-21T12:07:11Z",
  "version": 7,
  "changeset": 42320506,
  "user": "wheelmap_visitor",
  "uid": 290680,
  "tags": {
    "addr:city": "Berlin",
    "addr:country": "DE",
    "addr:housenumber": "66",
    "addr:postcode": "10555",
    "addr:street": "Stromstraße",
    "addr:suburb": "Moabit",
    "contact:phone": "+49 30 39887810",
    "contact:website": "http://www.fit-fahrradladen.de/",
    "email": "fit-fahrradladen@gmx.de",
    "name": "Fit Fahrradladen",
    "opening_hours": "Mo-Fr 09:00-19:00; Sa 09:00-15:00",
    "service:bicycle:rental": "yes",
    "service:bicycle:repair": "yes",
    "shop": "bicycle",
    "wheelchair": "no"
  }
},
{
  "type": "node",
  "id": 2392874919,
  "lat": 52.5121912,
  "lon": 13.4605290,
  "timestamp": "2016-05-06T21:16:56Z",
  "version": 7,
  "changeset": 39152433,
  "user": "jacobbraeutigam",
  "uid": 1260280,
  "tags": {
    "addr:city": "Berlin",
    "addr:country": "DE",
    "addr:housenumber": "34",
    "addr:postcode": "10245",
    "addr:street": "Boxhagener Straße",
    "addr:suburb": "Friedrichshain",
    "email": "info@nachfahrer.de",
    "entrance": "yes",
    "name": "Roland Jabs Nachfahrer",
    "phone": "+49 30 956 13727",
    "shop": "bicycle",
    "website": "http://www.nachfahrer.de/"
  }
},
{
  "type": "node",
  "id": 2392876066,
  "lat": 52.5141975,
  "lon": 13.4605674,
  "timestamp": "2018-08-08T13:46:50Z",
  "version": 7,
  "changeset": 61469533,
  "user": "Henson Stehling",
  "uid": 12618,
  "tags": {
    "addr:city": "Berlin",
    "addr:country": "DE",
    "addr:housenumber": "5",
    "addr:postcode": "10247",
    "addr:street": "Kreutzigerstraße",
    "addr:suburb": "Friedrichshain",
    "name": "Der Fahrradladen",
    "opening_hours": "Mo-Th 10:00-18:00; Fr 10:00-20:00",
    "operator": "Fahrrad-Britta",
    "phone": "+49 30 2915743",
    "service:bicycle:repair": "yes",
    "shop": "bicycle"
  }
},
{
  "type": "node",
  "id": 2401587679,
  "lat": 52.4916957,
  "lon": 13.3821568,
  "timestamp": "2017-06-11T11:17:32Z",
  "version": 4,
  "changeset": 49439924,
  "user": "JanCBorchardt",
  "uid": 360480,
  "tags": {
    "addr:city": "Berlin",
    "addr:country": "DE",
    "addr:housenumber": "18",
    "addr:postcode": "10965",
    "addr:street": "Hagelberger Straße",
    "addr:suburb": "Kreuzberg",
    "name": "Bike Punk",
    "opening_hours": "Mo-Sa 14:00-19:00",
    "service:bicycle:retail": "yes",
    "shop": "bicycle"
  }
},
{
  "type": "node",
  "id": 2411370812,
  "lat": 52.5654986,
  "lon": 13.4017031,
  "timestamp": "2017-10-30T14:33:10Z",
  "version": 10,
  "changeset": 53369353,
  "user": "TheBlackMan",
  "uid": 1468248,
  "tags": {
    "addr:city": "Berlin",
    "addr:country": "DE",
    "addr:housenumber": "20",
    "addr:postcode": "13187",
    "addr:street": "Florastraße",
    "addr:suburb": "Pankow",
    "email": "post@pankerad.de",
    "name": "Pankerad",
    "opening_hours": "Mo-Fr 10:00-19:00; Sa 10:00-14:00; PH off",
    "phone": "+49 30 49989793",
    "service:bicycle:pump": "yes",
    "service:bicycle:repair": "yes",
    "service:bicycle:retail": "yes",
    "shop": "bicycle",
    "website": "pankerad.com"
  }
},
{
  "type": "node",
  "id": 2429486145,
  "lat": 52.5097691,
  "lon": 13.4649301,
  "timestamp": "2016-01-04T09:10:33Z",
  "version": 4,
  "changeset": 36354676,
  "user": "atpl_pilot",
  "uid": 881429,
  "tags": {
    "addr:city": "Berlin",
    "addr:country": "DE",
    "addr:housenumber": "88",
    "addr:postcode": "10245",
    "addr:street": "Boxhagener Straße",
    "addr:suburb": "Friedrichshain",
    "owner": "Rico Freund und Mathias Schumann GbR",
    "shop": "bicycle",
    "wheelchair": "yes"
  }
},
{
  "type": "node",
  "id": 2445456644,
  "lat": 52.4866468,
  "lon": 13.3221575,
  "timestamp": "2016-07-02T15:42:57Z",
  "version": 5,
  "changeset": 40442902,
  "user": "jacobbraeutigam",
  "uid": 1260280,
  "tags": {
    "addr:city": "Berlin",
    "addr:country": "DE",
    "addr:housenumber": "95",
    "addr:postcode": "10717",
    "addr:street": "Uhlandstraße",
    "addr:suburb": "Wilmersdorf",
    "email": "wilmersdorf@radcompany.de",
    "name": "Rad Company",
    "opening_hours": "Mo-Fr 10:00-19:00; Sa 10:00-16:00",
    "phone": "+4930 86008686",
    "shop": "bicycle",
    "website": "http://radcompany.de/Radcompany-Berlin-Wilmersdorf-Uhlandstrasse-95",
    "wheelchair": "limited"
  }
},
{
  "type": "node",
  "id": 2455728726,
  "lat": 52.4805482,
  "lon": 13.3478508,
  "timestamp": "2017-12-10T12:05:33Z",
  "version": 7,
  "changeset": 54508785,
  "user": "RoterEmil",
  "uid": 4179530,
  "tags": {
    "addr:city": "Berlin",
    "addr:country": "DE",
    "addr:housenumber": "6",
    "addr:postcode": "10827",
    "addr:street": "Fritz-Reuter-Straße",
    "addr:suburb": "Schöneberg",
    "name": "RadWerkstatt Reinhard Kuschek",
    "phone": "+49 30 78712678",
    "shop": "bicycle",
    "wheelchair": "limited"
  }
},
{
  "type": "node",
  "id": 2458209496,
  "lat": 52.5577217,
  "lon": 13.4144139,
  "timestamp": "2015-12-20T06:33:27Z",
  "version": 5,
  "changeset": 36059354,
  "user": "atpl_pilot",
  "uid": 881429,
  "tags": {
    "addr:city": "Berlin",
    "addr:country": "DE",
    "addr:housenumber": "88",
    "addr:postcode": "13189",
    "addr:street": "Berliner Straße",
    "addr:suburb": "Pankow",
    "name": "Fahrrad Völker",
    "shop": "bicycle",
    "website": "http://www.fahrrad-voelker.de/"
  }
},
{
  "type": "node",
  "id": 2466173906,
  "lat": 52.5013646,
  "lon": 13.2975097,
  "timestamp": "2016-01-02T00:40:04Z",
  "version": 2,
  "changeset": 36309139,
  "user": "atpl_pilot",
  "uid": 881429,
  "tags": {
    "addr:city": "Berlin",
    "addr:country": "DE",
    "addr:housenumber": "34",
    "addr:postcode": "10711",
    "addr:street": "Damaschkestraße",
    "addr:suburb": "Halensee",
    "contact:email": "shaunps@hotmail.com",
    "contact:fax": "+49 30 25326486",
    "contact:phone": "+49 30 31804268",
    "contact:website": "http://www.radkonzept.com/",
    "name": "Radkonzept",
    "opening_hours": "Mar-Oct: Mo-Fr 11:00-19:00;Sa 10:00-14:00;Nov-Feb: Mo-Fr 14:00-19:00;Sa 10:00-14:00;Su,PH off",
    "owner": "Shaun Paul Simmons",
    "shop": "bicycle"
  }
},
{
  "type": "node",
  "id": 2476267540,
  "lat": 52.4781789,
  "lon": 13.3302153,
  "timestamp": "2013-09-29T07:03:14Z",
  "version": 1,
  "changeset": 18087195,
  "user": "Elwood",
  "uid": 6669,
  "tags": {
    "name": "Rad ideal",
    "shop": "bicycle"
  }
},
{
  "type": "node",
  "id": 2476267541,
  "lat": 52.4785290,
  "lon": 13.3324928,
  "timestamp": "2014-09-01T23:16:04Z",
  "version": 3,
  "changeset": 25170126,
  "user": "jacobbraeutigam",
  "uid": 1260280,
  "tags": {
    "addr:city": "Berlin",
    "addr:country": "DE",
    "addr:housenumber": "39",
    "addr:postcode": "10715",
    "addr:street": "Wexstraße",
    "addr:suburb": "Wilmersdorf",
    "name": "Radsport Demmel",
    "phone": "+4930 68324220",
    "shop": "bicycle",
    "website": "http://www.radsportdemmel.de/"
  }
},
{
  "type": "node",
  "id": 2483018379,
  "lat": 52.4896159,
  "lon": 13.3774594,
  "timestamp": "2014-09-01T17:50:26Z",
  "version": 4,
  "changeset": 25163905,
  "user": "jacobbraeutigam",
  "uid": 1260280,
  "tags": {
    "addr:city": "Berlin",
    "addr:country": "DE",
    "addr:housenumber": "31",
    "addr:postcode": "10965",
    "addr:street": "Kreuzbergstraße",
    "name": "Devils Child",
    "phone": "+49 30 7889 5002",
    "shop": "bicycle",
    "website": "http://www.devils-child.com/"
  }
},
{
  "type": "node",
  "id": 2491758393,
  "lat": 52.4797691,
  "lon": 13.4448222,
  "timestamp": "2014-09-01T23:15:47Z",
  "version": 4,
  "changeset": 25170126,
  "user": "jacobbraeutigam",
  "uid": 1260280,
  "tags": {
    "addr:city": "Berlin",
    "addr:country": "DE",
    "addr:housenumber": "137",
    "addr:street": "Sonnenallee",
    "name": "Plattenladen",
    "opening_hours": "Mo 16:00-21:00",
    "shop": "bicycle"
  }
},
{
  "type": "node",
  "id": 2492378184,
  "lat": 52.5408402,
  "lon": 13.3572449,
  "timestamp": "2013-10-11T14:12:57Z",
  "version": 1,
  "changeset": 18298714,
  "user": "MorbZ",
  "uid": 42705,
  "tags": {
    "shop": "bicycle"
  }
},
{
  "type": "node",
  "id": 2495554366,
  "lat": 52.4895875,
  "lon": 13.3894844,
  "timestamp": "2013-10-13T21:29:38Z",
  "version": 1,
  "changeset": 18340937,
  "user": "atpl_pilot",
  "uid": 881429,
  "tags": {
    "name": "Fahrradstation",
    "shop": "bicycle",
    "wheelchair": "no"
  }
},
{
  "type": "node",
  "id": 2496107655,
  "lat": 52.4866704,
  "lon": 13.3919332,
  "timestamp": "2016-01-15T04:35:49Z",
  "version": 6,
  "changeset": 36584708,
  "user": "atpl_pilot",
  "uid": 881429,
  "tags": {
    "addr:city": "Berlin",
    "addr:country": "DE",
    "addr:housenumber": "16",
    "addr:postcode": "10965",
    "addr:street": "Fidicinstraße",
    "addr:suburb": "Kreuzberg",
    "name": "cat-on-bike",
    "phone": "+49 030 95617788",
    "shop": "bicycle",
    "website": "http://www.cat-on-bike.com, http://www.shop.cat-on-bike.com"
  }
},
{
  "type": "node",
  "id": 2496231852,
  "lat": 52.4749140,
  "lon": 13.4178049,
  "timestamp": "2018-03-15T01:54:45Z",
  "version": 3,
  "changeset": 57195283,
  "user": "SupapleX",
  "uid": 418040,
  "tags": {
    "name": "mobile Fahrradwerkstatt",
    "opening_hours": "Su 14:00-19:00",
    "service:bicycle:cleaning": "no",
    "service:bicycle:diy": "yes",
    "service:bicycle:rental": "no",
    "service:bicycle:repair": "yes",
    "service:bicycle:retail": "no",
    "service:bicycle:second_hand": "no",
    "shop": "bicycle",
    "website": "http://taschengeldfirma.net/fahrrad.html"
  }
},
{
  "type": "node",
  "id": 2496651284,
  "lat": 52.4924483,
  "lon": 13.3882891,
  "timestamp": "2017-08-12T11:38:27Z",
  "version": 4,
  "changeset": 51056084,
  "user": "icke_wars",
  "uid": 1634188,
  "tags": {
    "addr:city": "Berlin",
    "addr:country": "DE",
    "addr:housenumber": "2",
    "addr:postcode": "10961",
    "addr:street": "Gneisenaustraße",
    "addr:suburb": "Kreuzberg",
    "name": "RS Velo Design",
    "name:de": "RS Velo Design",
    "phone": "01637996134",
    "shop": "bicycle"
  }
},
{
  "type": "node",
  "id": 2542447131,
  "lat": 52.5490958,
  "lon": 13.3486326,
  "timestamp": "2016-05-18T10:51:39Z",
  "version": 7,
  "changeset": 39397647,
  "user": "MorbZ",
  "uid": 42705,
  "tags": {
    "addr:city": "Berlin",
    "addr:country": "DE",
    "addr:housenumber": "104",
    "addr:postcode": "13353",
    "addr:street": "Seestraße",
    "addr:suburb": "Wedding",
    "amenity": "bicycle_rental",
    "contact:phone": "+4930 25 323 323",
    "email": "f.mandra@arcor.de",
    "name": "FRANCIS Fahrradservice",
    "note": "Schwerpunkt Fahrradreparatur. Ankauf/Verkauf/Service/Verleih. Nebenbei Schlittenverleih.",
    "opening_hours": "Mo-Fr 10:00-18:00;Sa 10:00-14:00",
    "shop": "bicycle",
    "website": "http://ffs-fahrrad.de"
  }
},
{
  "type": "node",
  "id": 2564062758,
  "lat": 52.5491321,
  "lon": 13.4492109,
  "timestamp": "2018-09-11T21:45:56Z",
  "version": 6,
  "changeset": 62502919,
  "user": "berndberndbernd",
  "uid": 6617985,
  "tags": {
    "addr:city": "Berlin",
    "addr:country": "DE",
    "addr:housenumber": "6",
    "addr:postcode": "13086",
    "addr:street": "Langhansstraße",
    "addr:suburb": "Weißensee",
    "contact:phone": "+49 30 91554095",
    "name": "velostat",
    "opening_hours": "Mo-Fr 10:00-18:30; Sa 09:30-14:30",
    "phone": "+49 30 91554095",
    "shop": "bicycle",
    "website": "http://www.velostat.de/",
    "wheelchair": "no"
  }
},
{
  "type": "node",
  "id": 2570442532,
  "lat": 52.4930816,
  "lon": 13.3826250,
  "timestamp": "2013-12-10T18:33:56Z",
  "version": 3,
  "changeset": 19382040,
  "user": "ypid",
  "uid": 1486839,
  "tags": {
    "name": "Radhaus Kreuzberg",
    "opening_hours": "Mo-Fr 10:00-13:00,14:00-19:00; Sa 10:00-16:00",
    "shop": "bicycle",
    "website": "http://www.radhaus-kreuzberg.de/"
  }
},
{
  "type": "node",
  "id": 2571131075,
  "lat": 52.4929780,
  "lon": 13.3823545,
  "timestamp": "2016-03-17T00:47:16Z",
  "version": 4,
  "changeset": 37886027,
  "user": "Ilian",
  "uid": 214267,
  "tags": {
    "addr:city": "Berlin",
    "addr:housenumber": "76",
    "addr:postcode": "10965",
    "addr:street": "Yorckstraße",
    "addr:suburb": "Kreuzberg",
    "name": "Velo à la Karte",
    "shop": "bicycle"
  }
},
{
  "type": "node",
  "id": 2623925458,
  "lat": 52.4851903,
  "lon": 13.3763432,
  "timestamp": "2014-01-15T20:23:43Z",
  "version": 1,
  "changeset": 20021920,
  "user": "Jenseblume",
  "uid": 1399112,
  "tags": {
    "name": "Norm-Radstation",
    "shop": "bicycle"
  }
},
{
  "type": "node",
  "id": 2625373039,
  "lat": 52.4975709,
  "lon": 13.4187719,
  "timestamp": "2018-01-27T13:35:33Z",
  "version": 7,
  "changeset": 55803663,
  "user": "abustany",
  "uid": 1892837,
  "tags": {
    "addr:city": "Berlin",
    "addr:country": "DE",
    "addr:housenumber": "8",
    "addr:postcode": "10999",
    "addr:street": "Kottbusser Straße",
    "addr:suburb": "Kreuzberg",
    "contact:email": "mail@rad-spannerei.de",
    "contact:phone": "+49 30 61507218",
    "contact:website": "http://www.rad-spannerei.de/",
    "identity": "solidarity_economy",
    "name": "Radspannerei",
    "opening_hours": "Tu 11:00-19:00; We 12:00-20:00; Th-Fr 11:00-19:00; Sa 12:00-19:00",
    "phone": "+49 30 61507218",
    "service:bicycle:diy": "yes",
    "service:bicycle:repair": "yes",
    "service:bicycle:retail": "yes",
    "shop": "bicycle",
    "source": "Solikon 2015",
    "wheelchair": "no"
  }
},
{
  "type": "node",
  "id": 2715754233,
  "lat": 52.5113920,
  "lon": 13.3000429,
  "timestamp": "2017-09-13T18:39:44Z",
  "version": 7,
  "changeset": 52015800,
  "user": "alalongue",
  "uid": 40140,
  "tags": {
    "addr:city": "Berlin",
    "addr:country": "DE",
    "addr:housenumber": "61",
    "addr:postcode": "10627",
    "addr:street": "Bismarckstraße",
    "addr:suburb": "Charlottenburg",
    "name": "triathlon.de Shop Berlin",
    "opening_hours": "Mo,Tu,Th,Fr 12:00-19:00, Sa 10:00-16:00",
    "shop": "bicycle",
    "wheelchair": "no"
  }
},
{
  "type": "node",
  "id": 2741884901,
  "lat": 52.5476626,
  "lon": 13.3515561,
  "timestamp": "2015-10-09T21:56:29Z",
  "version": 2,
  "changeset": 34539926,
  "user": "twonky",
  "uid": 3083654,
  "tags": {
    "addr:city": "Berlin",
    "addr:country": "DE",
    "addr:housenumber": "46",
    "addr:postcode": "13353",
    "addr:street": "Brüsseler Straße",
    "addr:suburb": "Wedding",
    "alt_name": "Doc Schimano",
    "contact:fax": "030 3965283",
    "contact:phone": "030 3965283",
    "name": "Rad-Core Berlin",
    "opening_hours": "Mo-Fr 9:00-18:00; Sa 10:00-14:00",
    "service:bicycle:repair": "yes",
    "service:bicycle:retail": "yes",
    "service:bicycle:second_hand": "yes",
    "shop": "bicycle",
    "website": "http://www.rad-core-berlin.de"
  }
},
{
  "type": "node",
  "id": 2752211167,
  "lat": 52.5614585,
  "lon": 13.3891156,
  "timestamp": "2014-09-01T17:51:28Z",
  "version": 3,
  "changeset": 25163905,
  "user": "jacobbraeutigam",
  "uid": 1260280,
  "tags": {
    "addr:city": "Berlin",
    "addr:country": "DE",
    "addr:housenumber": "74",
    "addr:postcode": "13359",
    "addr:street": "Wollankstraße",
    "addr:suburb": "Gesundbrunnen",
    "name": "Fahrrad Laden & Service",
    "shop": "bicycle"
  }
},
{
  "type": "node",
  "id": 2759261524,
  "lat": 52.5079531,
  "lon": 13.3175612,
  "timestamp": "2017-10-22T17:20:37Z",
  "version": 4,
  "changeset": 53157148,
  "user": "RoterEmil",
  "uid": 4179530,
  "tags": {
    "name": "Conrad Fahrrad",
    "opening_hours": "Mar-Oct Mo-Fr 11:00-19:00; We 13:00-19:00; Sa 11:00-15:00; Nov-Feb Mo 11:00-19:00; Tu off; We 13:00-20:00; Th-Fr 11:00-19:00; Sa 11:00-16:00",
    "phone": "+49 (0) 30 31808080",
    "service:bicycle:repair": "yes",
    "service:bicycle:retail": "yes",
    "shop": "bicycle",
    "website": "http://www.conrad-fahrrad.de",
    "wheelchair": "limited"
  }
},
{
  "type": "node",
  "id": 2770522781,
  "lat": 52.5121207,
  "lon": 13.4928825,
  "timestamp": "2018-08-04T08:07:12Z",
  "version": 3,
  "changeset": 61348325,
  "user": "Principal Jim Dale",
  "uid": 8502366,
  "tags": {
    "addr:city": "Berlin",
    "addr:housenumber": "213-217",
    "addr:postcode": "10365",
    "addr:street": "Frankfurter Allee",
    "name": "Bike Factory",
    "opening_hours": "Mo-Fr 09:00-20:00",
    "opening_hours_1": "Sa 09:00-14:00",
    "operator": "Sebastian Rach",
    "service:bicycle:pump": "yes",
    "service:bicycle:repair": "yes",
    "service:bicycle:retail": "yes",
    "shop": "bicycle"
  }
},
{
  "type": "node",
  "id": 2775136212,
  "lat": 52.5145188,
  "lon": 13.4687872,
  "timestamp": "2017-09-06T20:57:11Z",
  "version": 9,
  "changeset": 51793383,
  "user": "erde23",
  "uid": 361652,
  "tags": {
    "addr:city": "Berlin",
    "addr:country": "DE",
    "addr:housenumber": "71",
    "addr:postcode": "10247",
    "addr:street": "Frankfurter Allee",
    "addr:suburb": "Friedrichshain",
    "email": "berlin-friedrichshain@littlejohnbikes.de",
    "fax": "+49 30 42804517",
    "name": "Little John Bikes",
    "opening_hours": "Mo-Fr 10:00-19:00; Sa 10:00-18:00",
    "phone": "+49 30 42804516",
    "shop": "bicycle",
    "website": "http://www.littlejohnbikes.de/shops/berlin-friedrichshain.html",
    "wheelchair": "yes"
  }
},
{
  "type": "node",
  "id": 2789436379,
  "lat": 52.4810350,
  "lon": 13.4259507,
  "timestamp": "2018-03-24T16:11:37Z",
  "version": 7,
  "changeset": 57490022,
  "user": "rené",
  "uid": 11529,
  "tags": {
    "addr:city": "Berlin",
    "addr:country": "DE",
    "addr:housenumber": "50",
    "addr:postcode": "12053",
    "addr:street": "Flughafenstraße",
    "addr:suburb": "Neukölln",
    "atm": "yes",
    "internet_access": "no",
    "name": "Chichi",
    "opening_hours": "Mo-We,Fr,Sa 10:00-19:00",
    "shop": "bicycle",
    "wheelchair": "limited"
  }
},
{
  "type": "node",
  "id": 2822024519,
  "lat": 52.5329520,
  "lon": 13.3276897,
  "timestamp": "2016-07-14T20:25:43Z",
  "version": 3,
  "changeset": 40749461,
  "user": "jacobbraeutigam",
  "uid": 1260280,
  "tags": {
    "addr:city": "Berlin",
    "addr:country": "DE",
    "addr:housenumber": "1",
    "addr:postcode": "10553",
    "addr:street": "Sickingenstraße",
    "addr:suburb": "Moabit",
    "email": "info@radsport-center-moabit.de",
    "name": "Radsport-Center-Moabit",
    "opening_hours": "Mo-Fr 10:00-18:00; Sa 11:00-15:00",
    "phone": "+4930 3447017",
    "service:bicycle:repair": "yes",
    "service:bicycle:retail": "yes",
    "service:bicycle:second_hand": "yes",
    "shop": "bicycle",
    "website": "http://radsport-center-moabit.de"
  }
},
{
  "type": "node",
  "id": 2822957672,
  "lat": 52.4787714,
  "lon": 13.4384716,
  "timestamp": "2017-11-13T19:39:47Z",
  "version": 6,
  "changeset": 53749864,
  "user": "ToJocham",
  "uid": 4952192,
  "tags": {
    "addr:city": "Berlin",
    "addr:country": "DE",
    "addr:housenumber": "112",
    "addr:postcode": "12043",
    "addr:street": "Richardstraße",
    "addr:suburb": "Neukölln",
    "name": "City Rad",
    "opening_hours": "Mo-Fr 10:00-18:00, Sa 10:00-17:00",
    "service:bicycle:rental": "yes",
    "service:bicycle:repair": "yes",
    "service:bicycle:retail": "yes",
    "shop": "bicycle",
    "source": "Geoportal Berlin / Hauskoordinaten",
    "wheelchair": "limited"
  }
},
{
  "type": "node",
  "id": 2825036323,
  "lat": 52.5101998,
  "lon": 13.4597859,
  "timestamp": "2018-04-15T08:28:29Z",
  "version": 6,
  "changeset": 58104962,
  "user": "khanku",
  "uid": 136126,
  "tags": {
    "addr:city": "Berlin",
    "addr:country": "DE",
    "addr:housenumber": "23",
    "addr:postcode": "10245",
    "addr:street": "Krossener Straße",
    "addr:suburb": "Friedrichshain",
    "name": "Der Radrenner",
    "note": "Known for used vintage steel bikes. Between the Burger AMT takeout and Vinyl-a-Go-Go. Enter through the window. :)",
    "opening_hours": "Tu-Fr 12:00-18:00; Sa 12:00-16:00",
    "phone": "+49 176 973 463 63",
    "shop": "bicycle",
    "source": "Geoportal Berlin / Hauskoordinaten",
    "website": "https://radrenner.berlin/",
    "wheelchair": "no"
  }
},
{
  "type": "node",
  "id": 2860326046,
  "lat": 52.5374667,
  "lon": 13.3969304,
  "timestamp": "2017-12-09T15:24:47Z",
  "version": 7,
  "changeset": 54488900,
  "user": "Ива́н Васи́льевич",
  "uid": 2584726,
  "tags": {
    "addr:city": "Berlin",
    "addr:country": "DE",
    "addr:housenumber": "46",
    "addr:postcode": "10115",
    "addr:street": "Brunnenstraße",
    "addr:suburb": "Mitte",
    "contact:phone": "+4915141961528",
    "name": "Schicke Scheesen",
    "opening_hours": "Mo-Su 09:00-18:00; Sa 9:00-14:00",
    "service:bicycle:repair": "yes",
    "service:bicycle:retail": "yes",
    "shop": "bicycle"
  }
},
{
  "type": "node",
  "id": 2865263039,
  "lat": 52.4836075,
  "lon": 13.3604627,
  "timestamp": "2015-12-19T02:35:41Z",
  "version": 7,
  "changeset": 36038900,
  "user": "atpl_pilot",
  "uid": 881429,
  "tags": {
    "addr:city": "Berlin",
    "addr:country": "DE",
    "addr:housenumber": "74",
    "addr:postcode": "10829",
    "addr:street": "Gotenstraße",
    "addr:suburb": "Schöneberg",
    "email": "mail@con-radskeller.de",
    "name": "Con-Radskeller",
    "opening_hours": "Mo-Fr 11:00-19:00;Sa10:00-14:00",
    "operator": "Conrad Hauchwitz, von Meyerinck, Hornemann, Daniel Marcus GbR",
    "phone": "+49 178 5200075; +49 176 56321998",
    "shop": "bicycle",
    "website": "http://www.con-radskeller.de",
    "wheelchair": "no"
  }
},
{
  "type": "node",
  "id": 2894484226,
  "lat": 52.5093172,
  "lon": 13.4507119,
  "timestamp": "2016-08-02T06:57:24Z",
  "version": 15,
  "changeset": 41184349,
  "user": "Livermersey",
  "uid": 3297442,
  "tags": {
    "addr:city": "Berlin",
    "addr:country": "DE",
    "addr:housenumber": "31",
    "addr:postcode": "10243",
    "addr:street": "Warschauer Straße",
    "addr:suburb": "Friedrichshain",
    "contact:email": "service@radwelt-friedrichshain.de",
    "contact:fax": "+49 30 28096010",
    "contact:phone": "+49 30 28096009",
    "contact:website": "http://radwelt-friedrichshain.de",
    "name": "Radwelt Friedrichshain",
    "opening_hours": "Mo-Fr 09:00-20:00; Sa 10:00-20:00",
    "operator": "Radwelt Mitte RWM GmbH",
    "shop": "bicycle"
  }
},
{
  "type": "node",
  "id": 2902886764,
  "lat": 52.4828175,
  "lon": 13.3812686,
  "timestamp": "2015-06-29T14:24:49Z",
  "version": 10,
  "changeset": 32286874,
  "user": "kartoffelfee",
  "uid": 46303,
  "tags": {
    "addr:city": "Berlin",
    "addr:country": "DE",
    "addr:housenumber": "22",
    "addr:postcode": "12101",
    "addr:street": "Manfred-von-Richthofen-Straße",
    "addr:suburb": "Tempelhof",
    "contact:phone": "+49 30 63964316",
    "fax": "+49 30 63964322",
    "name": "La Dolce Velo",
    "opening_hours": "Mo-Fr 09:00-18:00; Sa 10:00-14:00",
    "shop": "bicycle",
    "url": "http://www.la-dolce-velo.de/"
  }
},
{
  "type": "node",
  "id": 2920624553,
  "lat": 52.4578751,
  "lon": 13.3183677,
  "timestamp": "2014-06-17T17:09:56Z",
  "version": 1,
  "changeset": 22988932,
  "user": "roald-linus",
  "uid": 302600,
  "tags": {
    "amenity": "vending_machine",
    "brand": "Continental",
    "payment:coins": "yes",
    "payment:notes": "no",
    "vending": "bicycle_tube"
  }
},
{
  "type": "node",
  "id": 2924855742,
  "lat": 52.5106859,
  "lon": 13.4523164,
  "timestamp": "2014-06-20T15:46:33Z",
  "version": 1,
  "changeset": 23047110,
  "user": "ubahnverleih",
  "uid": 114388,
  "tags": {
    "amenity": "vending_machine",
    "operator": "Fahrradcenter Friedrichshain",
    "vending": "bicycle_tube"
  }
},
{
  "type": "node",
  "id": 2934065926,
  "lat": 52.4894077,
  "lon": 13.4543052,
  "timestamp": "2014-06-26T10:30:21Z",
  "version": 1,
  "changeset": 23174206,
  "user": "shony",
  "uid": 117007,
  "tags": {
    "name": "Drahtelse",
    "opening_hours": "Tu-Fr 10:30-19:30;Sa 11:00-17:00",
    "phone": "+49 30 91474180",
    "service:bicycle:repair": "yes",
    "service:bicycle:retail": "yes",
    "shop": "bicycle",
    "website": "http://drahtelse.de/"
  }
},
{
  "type": "node",
  "id": 2934082085,
  "lat": 52.5090449,
  "lon": 13.4242524,
  "timestamp": "2015-01-06T11:03:59Z",
  "version": 5,
  "changeset": 27952815,
  "user": "MorbZ",
  "uid": 42705,
  "tags": {
    "addr:city": "Berlin",
    "addr:country": "DE",
    "addr:housenumber": "44",
    "addr:postcode": "10179",
    "addr:street": "Köpenicker Straße",
    "addr:suburb": "Mitte",
    "name": "bergvycle",
    "service:bicycle:rental": "yes",
    "shop": "bicycle",
    "wheelchair": "no"
  }
},
{
  "type": "node",
  "id": 2935263665,
  "lat": 52.5019354,
  "lon": 13.4406061,
  "timestamp": "2014-06-27T10:19:50Z",
  "version": 1,
  "changeset": 23210424,
  "user": "shony",
  "uid": 117007,
  "tags": {
    "name": "KUBI'S Bike Shop II",
    "opening_hours": "Mo-Fr 12:00-19:00; Sa 12:00-18:00",
    "phone": "+49 176 48383253",
    "service:bicycle:rental": "yes",
    "service:bicycle:repair": "yes",
    "service:bicycle:retail": "yes",
    "service:bicycle:second_hand": "yes",
    "shop": "bicycle"
  }
},
{
  "type": "node",
  "id": 2939769878,
  "lat": 52.5688270,
  "lon": 13.4120680,
  "timestamp": "2017-10-30T12:19:19Z",
  "version": 8,
  "changeset": 53366152,
  "user": "Samseven",
  "uid": 5592436,
  "tags": {
    "addr:city": "Berlin",
    "addr:country": "DE",
    "addr:housenumber": "122",
    "addr:postcode": "13187",
    "addr:street": "Berliner Straße",
    "name": "baik Der Fahrradladen",
    "opening_hours": "off",
    "shop": "bicycle",
    "wheelchair": "no"
  }
},
{
  "type": "node",
  "id": 2967602411,
  "lat": 52.5079445,
  "lon": 13.4669898,
  "timestamp": "2017-07-14T10:27:23Z",
  "version": 6,
  "changeset": 50277836,
  "user": "Jbeuthner",
  "uid": 6311967,
  "tags": {
    "addr:city": "Berlin",
    "addr:country": "DE",
    "addr:housenumber": "52",
    "addr:postcode": "10245",
    "addr:street": "Boxhagener Straße",
    "addr:suburb": "Friedrichshain",
    "contact:email": "info@pedalage.de",
    "contact:phone": "+49 30 81035060",
    "contact:website": "http://www.pedalage.de",
    "name": "pédalage",
    "opening_hours": "Mo-Fr 13:00-20:00",
    "shop": "bicycle",
    "wheelchair": "no"
  }
},
{
  "type": "node",
  "id": 3012142780,
  "lat": 52.4944810,
  "lon": 13.3986108,
  "timestamp": "2016-09-04T06:44:35Z",
  "version": 2,
  "changeset": 41901244,
  "user": "thihoa",
  "uid": 398055,
  "tags": {
    "addr:city": "Berlin",
    "addr:postcode": "10961",
    "addr:street": "Blücherstraße",
    "name": "M'eierrad",
    "shop": "bicycle",
    "wheelchair": "no"
  }
},
{
  "type": "node",
  "id": 3031871553,
  "lat": 52.4973736,
  "lon": 13.3896883,
  "timestamp": "2018-07-26T13:05:29Z",
  "version": 5,
  "changeset": 61088206,
  "user": "MKnight",
  "uid": 39774,
  "tags": {
    "addr:city": "Berlin",
    "addr:housenumber": "1b",
    "addr:postcode": "10961",
    "addr:street": "Tempelhofer Ufer",
    "addr:suburb": "Kreuzberg",
    "name": "Clever ums Rad",
    "opening_hours": "Mo-Fr 11:00-19:00, Sa 11:00-15:00",
    "shop": "bicycle",
    "wheelchair": "yes"
  }
},
{
  "type": "node",
  "id": 3036859944,
  "lat": 52.4954449,
  "lon": 13.4194046,
  "timestamp": "2018-06-30T09:19:39Z",
  "version": 5,
  "changeset": 60297764,
  "user": "smartn",
  "uid": 4577491,
  "tags": {
    "addr:city": "Berlin",
    "addr:country": "DE",
    "addr:housenumber": "1",
    "addr:postcode": "10967",
    "addr:street": "Graefestraße",
    "addr:suburb": "Kreuzberg",
    "name": "Lampke Helga Fahrradteile",
    "opening_hours": "Mo-Fr 09:00-18:00; Sa 09:00-13:00",
    "phone": "0306934133",
    "shop": "bicycle",
    "source": "Geoportal Berlin / Hauskoordinaten"
  }
},
{
  "type": "node",
  "id": 3036860007,
  "lat": 52.4904473,
  "lon": 13.4197298,
  "timestamp": "2017-09-16T18:45:14Z",
  "version": 4,
  "changeset": 52102367,
  "user": "Bökes Bikes",
  "uid": 6665250,
  "tags": {
    "addr:city": "Berlin",
    "addr:country": "DE",
    "addr:housenumber": "19",
    "addr:postcode": "10967",
    "addr:street": "Schönleinstraße",
    "addr:suburb": "Kreuzberg",
    "name": "Bökes Bikes",
    "opening_hours": "Mo-Fr 10:00-19:00, Sa 11:00-19:00",
    "operator": "Sebahattin Böke",
    "service:bicycle:Bicycle_Sales_and_Service": "yes",
    "service:bicycle:bicycle": "yes",
    "service:bicycle:parts": "yes",
    "service:bicycle:pump": "yes",
    "service:bicycle:rental": "yes",
    "service:bicycle:repair": "yes",
    "service:bicycle:second_hand": "yes",
    "service:bicycle:tools": "yes",
    "shop": "bicycle",
    "source": "Geoportal Berlin / Hauskoordinaten"
  }
},
{
  "type": "node",
  "id": 3058126653,
  "lat": 52.4996849,
  "lon": 13.4158216,
  "timestamp": "2018-08-08T19:01:38Z",
  "version": 5,
  "changeset": 61478194,
  "user": "0815jh007",
  "uid": 697257,
  "tags": {
    "addr:city": "Berlin",
    "addr:country": "DE",
    "addr:housenumber": "6",
    "addr:postcode": "10999",
    "addr:street": "Reichenberger Straße",
    "addr:suburb": "Kreuzberg",
    "contact:phone": "+493066402665",
    "contact:website": "http://www.bikefix-berlin.de",
    "name": "Bikefix - Alis Fahrradladen",
    "shop": "bicycle",
    "source": "Dakota 20",
    "wheelchair": "no"
  }
},
{
  "type": "node",
  "id": 3058862927,
  "lat": 52.4652358,
  "lon": 13.3291156,
  "timestamp": "2017-10-29T10:03:07Z",
  "version": 5,
  "changeset": 53336968,
  "user": "RoterEmil",
  "uid": 4179530,
  "tags": {
    "addr:city": "Berlin",
    "addr:country": "DE",
    "addr:housenumber": "41",
    "addr:postcode": "12161",
    "addr:street": "Rheinstraße",
    "addr:suburb": "Steglitz",
    "name": "Little John Bikes",
    "shop": "bicycle",
    "source": "Geoportal Berlin / Hauskoordinaten"
  }
},
{
  "type": "node",
  "id": 3060867127,
  "lat": 52.5029281,
  "lon": 13.4803969,
  "timestamp": "2018-04-29T13:14:34Z",
  "version": 13,
  "changeset": 58525413,
  "user": "BER319",
  "uid": 3020814,
  "tags": {
    "addr:city": "Berlin",
    "addr:country": "DE",
    "addr:housenumber": "22",
    "addr:postcode": "10317",
    "addr:street": "Türrschmidtstraße",
    "addr:suburb": "Rummelsburg",
    "description": "Fahrradladen",
    "name": "Kettenreaktion",
    "opening_hours": "Mo-Fr 10:00-18:00; Sa 10:00-18:00",
    "shop": "bicycle",
    "wheelchair": "no"
  }
},
{
  "type": "node",
  "id": 3065774936,
  "lat": 52.5345991,
  "lon": 13.4059675,
  "timestamp": "2018-03-22T09:11:03Z",
  "version": 10,
  "changeset": 57414428,
  "user": "PatrickKaufmann",
  "uid": 364815,
  "tags": {
    "addr:city": "Berlin",
    "addr:country": "DE",
    "addr:housenumber": "64",
    "addr:postcode": "10119",
    "addr:street": "Kastanienallee",
    "addr:suburb": "Mitte",
    "contact:phone": "+49 (0)30 65002622",
    "contact:website": "http://www.wingwheels.de/",
    "email": "mail@wingwheels.de",
    "fax": "+49 30 55659114",
    "name": "Wingwheels",
    "opening_hours": "Mo-Fr 10:00-19:00; Sa 11:00-19:00",
    "phone": "+49 30 65002622",
    "service:bicycle:rental": "yes",
    "service:bicycle:repair": "yes",
    "shop": "bicycle",
    "website": "https://www.wingwheels.com"
  }
},
{
  "type": "node",
  "id": 3163972892,
  "lat": 52.4936157,
  "lon": 13.3948095,
  "timestamp": "2017-12-15T21:32:54Z",
  "version": 6,
  "changeset": 54666060,
  "user": "RoterEmil",
  "uid": 4179530,
  "tags": {
    "addr:city": "Berlin",
    "addr:country": "DE",
    "addr:housenumber": "5",
    "addr:postcode": "10961",
    "addr:street": "Zossener Straße",
    "addr:suburb": "Kreuzberg",
    "description": "Fahrradreparaturen und gebrauchte Fahrräder",
    "name": "VeloFit",
    "service:bicycle:repair": "yes",
    "service:bicycle:second_hand": "yes",
    "shop": "bicycle",
    "source": "Geoportal Berlin / Hauskoordinaten"
  }
},
{
  "type": "node",
  "id": 3274159514,
  "lat": 52.4975481,
  "lon": 13.4187866,
  "timestamp": "2015-12-22T00:59:47Z",
  "version": 2,
  "changeset": 36097351,
  "user": "atpl_pilot",
  "uid": 881429,
  "tags": {
    "addr:city": "Berlin",
    "addr:country": "DE",
    "addr:housenumber": "8",
    "addr:postcode": "10999",
    "addr:street": "Kottbusser Straße",
    "addr:suburb": "Kreuzberg",
    "amenity": "vending_machine",
    "brand": "unknown",
    "name": "Schlauchomat",
    "operator": "Radspannerei",
    "payment": "unknown",
    "ref": "unknown",
    "source": "http://www.rad-spannerei.de/blog/2015/01/06/verkauf-nach-ladenschluss/",
    "vending": "bicycle_tube"
  }
},
{
  "type": "node",
  "id": 3354056740,
  "lat": 52.4750807,
  "lon": 13.3243685,
  "timestamp": "2015-02-16T14:49:59Z",
  "version": 1,
  "changeset": 28887595,
  "user": "atpl_pilot",
  "uid": 881429,
  "tags": {
    "addr:city": "Berlin",
    "addr:country": "DE",
    "addr:postcode": "12161",
    "addr:street": "Stubenrauchstraße",
    "addr:suburb": "Friedenau",
    "name": "Radsport Südwest",
    "shop": "bicycle",
    "wheelchair": "yes"
  }
},
{
  "type": "node",
  "id": 3373144216,
  "lat": 52.4835558,
  "lon": 13.4423444,
  "timestamp": "2017-12-29T14:28:38Z",
  "version": 5,
  "changeset": 55011177,
  "user": "Nicor",
  "uid": 496808,
  "tags": {
    "addr:housenumber": "83",
    "addr:street": "Wildenbruchstraße",
    "name": "myelectricycle",
    "opening_hours": "Mo,Tu,Th,Fr 11:00-19:00",
    "phone": "030-689991-34",
    "shop": "bicycle",
    "website": "http://myelectricycle.de/",
    "wheelchair": "yes"
  }
},
{
  "type": "node",
  "id": 3376500355,
  "lat": 52.5076819,
  "lon": 13.3096139,
  "timestamp": "2015-02-28T14:54:44Z",
  "version": 1,
  "changeset": 29157192,
  "user": "gkai",
  "uid": 74224,
  "tags": {
    "name": "BiCi Berlin",
    "shop": "bicycle",
    "website": "http://www.bici.berlin/"
  }
},
{
  "type": "node",
  "id": 3409675298,
  "lat": 52.5583221,
  "lon": 13.3752749,
  "timestamp": "2018-03-12T07:48:30Z",
  "version": 3,
  "changeset": 57102067,
  "user": "highflyer74",
  "uid": 2545951,
  "tags": {
    "addr:city": "Berlin",
    "addr:country": "DE",
    "addr:housenumber": "36",
    "addr:postcode": "13359",
    "addr:street": "Drontheimer Straße",
    "contact:fax": "+49 30 4911153",
    "contact:mobile": "+49 157 82666826",
    "contact:phone": "+49 30 4911016",
    "name": "Hofatex - Selbsthilfe-Werkstatt",
    "opening_hours": "Mo-Fr 09:00-14:00",
    "operator": "puk a malta gGmbH",
    "shop": "bicycle"
  }
},
{
  "type": "node",
  "id": 3442698428,
  "lat": 52.4901573,
  "lon": 13.4487477,
  "timestamp": "2016-10-14T09:16:21Z",
  "version": 4,
  "changeset": 42890569,
  "user": "tbsprs",
  "uid": 700362,
  "tags": {
    "addr:city": "Berlin",
    "addr:housenumber": "21",
    "addr:postcode": "12435",
    "addr:street": "Karl-Kunger-Straße",
    "addr:suburb": "Alt-Treptow",
    "name": "Fahrradpraxis",
    "opening_hours": "Mo-Fr 10:00-20:00; Sa 10:00-16:00",
    "service:bicycle:chaintool": "yes",
    "service:bicycle:chaintool:fee": "yes",
    "service:bicycle:pump": "yes",
    "service:bicycle:pump:fee": "yes",
    "shop": "bicycle"
  }
},
{
  "type": "node",
  "id": 3446123445,
  "lat": 52.5323503,
  "lon": 13.3968456,
  "timestamp": "2016-11-20T12:14:27Z",
  "version": 7,
  "changeset": 43820503,
  "user": "Ива́н Васи́льевич",
  "uid": 2584726,
  "tags": {
    "addr:city": "Berlin",
    "addr:country": "DE",
    "addr:housenumber": "157",
    "addr:postcode": "10115",
    "addr:street": "Invalidenstraße",
    "addr:suburb": "Mitte",
    "internet_access": "wlan",
    "name": "Standert Bicycles",
    "opening_hours": "Tu-Fr 12:00-20:00; Sa 11:00-16:00; Su,PH off",
    "service:bicycle:pump": "yes",
    "service:bicycle:retail": "yes",
    "service:bicycle:second_hand": "no",
    "shop": "bicycle",
    "website": "http://standert.de"
  }
},
{
  "type": "node",
  "id": 3464991040,
  "lat": 52.5535082,
  "lon": 13.4124206,
  "timestamp": "2018-01-14T19:08:55Z",
  "version": 4,
  "changeset": 55440458,
  "user": "28MzXP5-_uXH",
  "uid": 1940221,
  "tags": {
    "addr:city": "Berlin",
    "addr:country": "DE",
    "addr:housenumber": "91",
    "addr:postcode": "10439",
    "addr:street": "Bornholmer Straße",
    "addr:suburb": "Prenzlauer Berg",
    "name": "The Bike Shop",
    "opening_hours": "Mo-Fr 12:00-18:00",
    "shop": "bicycle",
    "website": "http://thebikeshop.twoday.net/"
  }
},
{
  "type": "node",
  "id": 3518024326,
  "lat": 52.5451762,
  "lon": 13.4262590,
  "timestamp": "2015-12-20T06:34:44Z",
  "version": 2,
  "changeset": 36059354,
  "user": "atpl_pilot",
  "uid": 881429,
  "tags": {
    "addr:city": "Berlin",
    "addr:country": "DE",
    "addr:housenumber": "15",
    "addr:postcode": "10439",
    "addr:street": "Kanzowstraße",
    "name": "Komponentix",
    "operator": "Reinald Bäß",
    "shop": "bicycle"
  }
},
{
  "type": "node",
  "id": 3550917596,
  "lat": 52.5152778,
  "lon": 13.3048793,
  "timestamp": "2015-12-28T01:36:49Z",
  "version": 3,
  "changeset": 36209950,
  "user": "atpl_pilot",
  "uid": 881429,
  "tags": {
    "addr:city": "Berlin",
    "addr:country": "DE",
    "addr:housenumber": "155",
    "addr:postcode": "10585",
    "addr:street": "Wilmersdorfer Straße",
    "addr:suburb": "Charlottenburg",
    "contact:email": "info@radstaette.de",
    "contact:phone": "+49 30 74763747",
    "contact:website": "http://www.radstaette.de/",
    "name": "Radstätte",
    "note": "Geprüft am 27. Dez 2015",
    "opening_hours": "Mo-Fr 10:00-12:30, 13:00-18:00; Sa 10:00-12:30, 10:00-14:00",
    "service:bicycle:pump": "yes",
    "service:bicycle:repair": "yes",
    "service:bicycle:retail": "yes",
    "service:bicycle:second_hand": "yes",
    "shop": "bicycle",
    "wheelchair": "no"
  }
},
{
  "type": "node",
  "id": 3650929625,
  "lat": 52.4772627,
  "lon": 13.3098539,
  "timestamp": "2015-12-22T08:02:30Z",
  "version": 3,
  "changeset": 36099841,
  "user": "atpl_pilot",
  "uid": 881429,
  "tags": {
    "addr:city": "Berlin",
    "addr:country": "DE",
    "addr:housenumber": "83",
    "addr:postcode": "14197",
    "addr:street": "Binger Straße",
    "contact:website": "http://www.gebrauchte-fahrräder-berlin.de",
    "name": "Gebrauchte Fahrräder Berlin",
    "phone": "+49-177-6155524",
    "shop": "bicycle"
  }
},
{
  "type": "node",
  "id": 3666797708,
  "lat": 52.5305899,
  "lon": 13.4709309,
  "timestamp": "2018-03-25T17:58:46Z",
  "version": 3,
  "changeset": 57514153,
  "user": "torcsa",
  "uid": 139050,
  "tags": {
    "addr:city": "Berlin",
    "addr:country": "DE",
    "addr:housenumber": "14",
    "addr:postcode": "10369",
    "addr:street": "Anton-Saefkow-Platz",
    "phone": "03022437674",
    "second_hand": "yes",
    "shop": "bicycle",
    "website": "http://www.fahrrad-kiosk-lichtenberg.de/",
    "wheelchair": "yes"
  }
},
{
  "type": "node",
  "id": 3714117116,
  "lat": 52.5087647,
  "lon": 13.3077557,
  "timestamp": "2015-12-22T12:18:20Z",
  "version": 2,
  "changeset": 36104033,
  "user": "atpl_pilot",
  "uid": 881429,
  "tags": {
    "addr:city": "Berlin",
    "addr:country": "DE",
    "addr:housenumber": "46",
    "addr:postcode": "10625",
    "addr:street": "Goethestraße",
    "addr:suburb": "Charlottenburg",
    "name": "fahrradstation",
    "shop": "bicycle"
  }
},
{
  "type": "node",
  "id": 3750794427,
  "lat": 52.5407090,
  "lon": 13.4159800,
  "timestamp": "2015-09-19T18:59:19Z",
  "version": 1,
  "changeset": 34127024,
  "user": "Creando",
  "uid": 132740,
  "tags": {
    "brand": "KTM",
    "name": "GST-Shop",
    "shop": "bicycle"
  }
},
{
  "type": "node",
  "id": 3763639087,
  "lat": 52.4822621,
  "lon": 13.4655221,
  "timestamp": "2016-09-17T07:55:12Z",
  "version": 3,
  "changeset": 42221300,
  "user": "anbr",
  "uid": 43566,
  "tags": {
    "addr:city": "Berlin",
    "addr:country": "DE",
    "addr:housenumber": "13",
    "addr:postcode": "12435",
    "addr:street": "Karpfenteichstraße",
    "addr:suburb": "Plänterwald",
    "amenity": "bicycle_repair_station",
    "contact:email": "netzwerk@werkstatt-lastenrad.de",
    "contact:website": "http://werkstatt-lastenrad.de",
    "identity": "commons;p2p_economy",
    "interaction": "diy_and_dit",
    "name": "Wikiprojekt Werkstatt-Lastenrad",
    "opening_hours": "Mo,We 16:00-22:00",
    "operator": "Berliner Lastenrad-Netzwerk",
    "service:bicycle:diy": "yes",
    "source": "Solikon 2015"
  }
},
{
  "type": "node",
  "id": 3769146894,
  "lat": 52.5609667,
  "lon": 13.3742728,
  "timestamp": "2017-10-29T09:34:13Z",
  "version": 2,
  "changeset": 53336335,
  "user": "RoterEmil",
  "uid": 4179530,
  "tags": {
    "addr:city": "Berlin",
    "addr:country": "DE",
    "addr:housenumber": "43",
    "addr:postcode": "13409",
    "addr:street": "Ritterlandweg",
    "addr:suburb": "Reinickendorf",
    "email": "fahrrad-eck@arcor.de",
    "name": "Fahrradland Fahrrad Eck",
    "opening_hours": "Mo-Fr 10:00-18:30; Sa 09:30-14:00",
    "phone": "+49 30 4911066",
    "shop": "bicycle",
    "website": "http://www.das-fahrradland-berlin.de"
  }
},
{
  "type": "node",
  "id": 3826451965,
  "lat": 52.4987272,
  "lon": 13.3506175,
  "timestamp": "2015-11-09T11:52:12Z",
  "version": 1,
  "changeset": 35189992,
  "user": "atpl_pilot",
  "uid": 881429,
  "tags": {
    "addr:city": "Berlin",
    "addr:country": "DE",
    "addr:housenumber": "12",
    "addr:postcode": "10777",
    "addr:street": "Motzstraße",
    "addr:suburb": "Schöneberg",
    "name": "Fahrradladen Velomondo",
    "opening_hours": "Sa 10:00-14:00; Jun-Aug: Mo-Fr 10:00-19:00; Dec-Feb: Mo-Fr 10:00-18:00",
    "phone": "+49 30 21753046",
    "shop": "bicycle",
    "website": "http://www.velomondo.de",
    "wheelchair": "no"
  }
},
{
  "type": "node",
  "id": 3895798940,
  "lat": 52.5121769,
  "lon": 13.4606102,
  "timestamp": "2016-01-08T01:05:47Z",
  "version": 2,
  "changeset": 36436841,
  "user": "atpl_pilot",
  "uid": 881429,
  "tags": {
    "amenity": "vending_machine",
    "operator": "Roland Jabs Nachfahrer",
    "vending": "bicycle_tube"
  }
},
{
  "type": "node",
  "id": 3907399025,
  "lat": 52.5107572,
  "lon": 13.4624032,
  "timestamp": "2016-01-04T09:10:44Z",
  "version": 2,
  "changeset": 36354676,
  "user": "atpl_pilot",
  "uid": 881429,
  "tags": {
    "amenity": "vending_machine",
    "operator": "Zum goldenen Lenker",
    "vending": "bicycle_tube"
  }
},
{
  "type": "node",
  "id": 3930117757,
  "lat": 52.5196341,
  "lon": 13.4111595,
  "timestamp": "2018-07-29T04:00:42Z",
  "version": 8,
  "changeset": 61155546,
  "user": "kartonage",
  "uid": 1497225,
  "tags": {
    "addr:city": "Berlin",
    "addr:housenumber": "5",
    "addr:postcode": "10178",
    "addr:street": "Rathausstraße",
    "level": "1",
    "name": "Decathlon",
    "opening_hours": "Mo-Sa 10:00-21:00",
    "operator": "Decathlon",
    "service:bicycle:retail": "yes",
    "shop": "sports",
    "wheelchair": "yes",
    "wheelchair:description": "Zugang über das Parkhaus 1. Ebene direkt zugänglich."
  }
},
{
  "type": "node",
  "id": 4054190498,
  "lat": 52.5236373,
  "lon": 13.3007523,
  "timestamp": "2016-03-12T23:48:56Z",
  "version": 3,
  "changeset": 37792581,
  "user": "Henson Stehling",
  "uid": 12618,
  "tags": {
    "addr:city": "Berlin",
    "addr:housenumber": "46",
    "addr:postcode": "10589",
    "addr:street": "Tauroggener Straße",
    "name": "Café Egal und Radlstation",
    "note": "Café, Bar, Fahrradwerkstatt",
    "phone": "+49 30 34509919",
    "shop": "bicycle",
    "source": "selbst besucht & Sattel montieren lassen",
    "website": "http://radlstation-berlin.de/"
  }
},
{
  "type": "node",
  "id": 4061438561,
  "lat": 52.5073609,
  "lon": 13.3024912,
  "timestamp": "2016-03-15T10:56:07Z",
  "version": 1,
  "changeset": 37840326,
  "user": "bielebog",
  "uid": 29639,
  "tags": {
    "addr:city": "Berlin",
    "addr:country": "DE",
    "addr:housenumber": "60",
    "addr:postcode": "10627",
    "addr:street": "Kaiser-Friedrich-Straße",
    "addr:suburb": "Charlottenburg",
    "name": "Rad-Center",
    "opening_hours": "Mo-Fr 12:00-19:00; Sa 12:00-15:00",
    "shop": "bicycle",
    "wheelchair": "no"
  }
},
{
  "type": "node",
  "id": 4064442704,
  "lat": 52.4925510,
  "lon": 13.3809394,
  "timestamp": "2016-03-17T07:18:34Z",
  "version": 2,
  "changeset": 37889450,
  "user": "FvGordon",
  "uid": 161619,
  "tags": {
    "addr:city": "Berlin",
    "addr:country": "DE",
    "addr:housenumber": "71",
    "addr:postcode": "10965",
    "addr:street": "Yorckstraße",
    "name": "Zweiradnetz",
    "opening_hours": "Mo-Th 11:00-18:30; Fr 11:00-16:00",
    "phone": "+493026379088",
    "service:bicycle:retail": "yes",
    "shop": "bicycle",
    "website": "https://www.zweiradnetz.de/"
  }
},
{
  "type": "node",
  "id": 4071864789,
  "lat": 52.5447685,
  "lon": 13.4278136,
  "timestamp": "2017-11-19T20:45:07Z",
  "version": 2,
  "changeset": 53932891,
  "user": "Hb-",
  "uid": 162827,
  "tags": {
    "amenity": "bicycle_rental",
    "name": "Temporad",
    "shop": "bicycle",
    "website": "http://www.temporad.de"
  }
},
{
  "type": "node",
  "id": 4100505090,
  "lat": 52.4956279,
  "lon": 13.4681955,
  "timestamp": "2018-05-23T08:59:44Z",
  "version": 8,
  "changeset": 59203721,
  "user": "PiJu",
  "uid": 474817,
  "tags": {
    "addr:city": "Berlin",
    "addr:country": "DE",
    "addr:housenumber": "60",
    "addr:postcode": "10245",
    "addr:street": "Alt-Stralau",
    "addr:suburb": "Friedrichshain",
    "email": "info@radladen.berlin",
    "name": "Radladen",
    "opening_hours": "Mo-Fr 10:00-19:00; Sa 10:00-16:00",
    "phone": "+49 30 50368214",
    "shop": "bicycle",
    "toilets:wheelchair": "no",
    "website": "http://radladen.berlin/",
    "wheelchair": "yes"
  }
},
{
  "type": "node",
  "id": 4100572578,
  "lat": 52.5442178,
  "lon": 13.3904999,
  "timestamp": "2016-04-05T20:07:48Z",
  "version": 1,
  "changeset": 38330587,
  "user": "Francois555",
  "uid": 2037651,
  "tags": {
    "name": "e-motion",
    "shop": "bicycle"
  }
},
{
  "type": "node",
  "id": 4140025801,
  "lat": 52.5254400,
  "lon": 13.3034677,
  "timestamp": "2016-04-22T09:17:11Z",
  "version": 2,
  "changeset": 38779603,
  "user": "Henson Stehling",
  "uid": 12618,
  "tags": {
    "addr:city": "Berlin",
    "addr:housenumber": "31",
    "addr:postcode": "10589",
    "addr:street": "Osnabrücker Straße",
    "name": "Fahrradladen Dialog",
    "operator": "Michael Müller",
    "phone": "+49 30 9764313755",
    "shop": "bicycle"
  }
},
{
  "type": "node",
  "id": 4142919851,
  "lat": 52.4580148,
  "lon": 13.5095846,
  "timestamp": "2018-06-17T18:43:20Z",
  "version": 5,
  "changeset": 59921004,
  "user": "BER319",
  "uid": 3020814,
  "tags": {
    "amenity": "bicycle_repair_station",
    "operator": "Decathlon",
    "service:bicycle:pump": "yes"
  }
},
{
  "type": "node",
  "id": 4193676996,
  "lat": 52.5508348,
  "lon": 13.3787115,
  "timestamp": "2016-05-18T15:14:39Z",
  "version": 1,
  "changeset": 39402993,
  "user": "Sylvester Knaller",
  "uid": 3978088,
  "tags": {
    "name": "Pankbike",
    "shop": "bicycle"
  }
},
{
  "type": "node",
  "id": 4198642701,
  "lat": 52.5232966,
  "lon": 13.4536158,
  "timestamp": "2018-08-11T02:49:39Z",
  "version": 3,
  "changeset": 61556631,
  "user": "0815jh007",
  "uid": 697257,
  "tags": {
    "addr:housenumber": "35",
    "addr:street": "Ebertystraße",
    "email": "info@laktat3.de",
    "name": "Laktat 3",
    "opening_hours": "Mo-Tu, Th-Fr 12:00-20:00; Sa 10:00-18:00",
    "phone": "+49(0)3042020150",
    "shop": "bicycle",
    "website": "https://laktat3.de",
    "wheelchair": "no"
  }
},
{
  "type": "node",
  "id": 4198817408,
  "lat": 52.4998708,
  "lon": 13.4094847,
  "timestamp": "2017-05-03T11:56:46Z",
  "version": 2,
  "changeset": 48363694,
  "user": "loominade",
  "uid": 2973170,
  "tags": {
    "addr:city": "Berlin",
    "addr:housenumber": "11",
    "addr:postcode": "10969",
    "addr:street": "Wassertorstraße",
    "email": "info@tokyobike.de",
    "name": "Tokyo Bike",
    "opening_hours": "We-Fr 14:00-19:00; Sa 14:00-17:00",
    "operator": "Tokyo Bike",
    "phone": "+493062901510",
    "service:bicycle:parts": "yes",
    "service:bicycle:pump": "yes",
    "service:bicycle:repair": "yes",
    "service:bicycle:retail": "yes",
    "service:bicycle:screwdriver": "yes",
    "service:bicycle:tools": "yes",
    "shop": "bicycle",
    "website": "http://tokyobike.de/",
    "wheelchair": "yes"
  }
},
{
  "type": "node",
  "id": 4210823891,
  "lat": 52.5005871,
  "lon": 13.3054723,
  "timestamp": "2016-05-27T14:59:14Z",
  "version": 1,
  "changeset": 39606357,
  "user": "gkai",
  "uid": 74224,
  "tags": {
    "name": "GreenBike",
    "shop": "bicycle",
    "website": "http://www.de.greenbike.biz/"
  }
},
{
  "type": "node",
  "id": 4227784792,
  "lat": 52.4910986,
  "lon": 13.3907328,
  "timestamp": "2016-08-24T19:27:26Z",
  "version": 2,
  "changeset": 41671081,
  "user": "wheelmap_android",
  "uid": 524500,
  "tags": {
    "name": "Bikes 4 U",
    "opening_hours": "Mo-Fr 10:00-20:00; Sa 10:00-16:00",
    "phone": "+4915206724232",
    "shop": "bicycle",
    "wheelchair": "no"
  }
},
{
  "type": "node",
  "id": 4236203789,
  "lat": 52.5325295,
  "lon": 13.4198910,
  "timestamp": "2016-12-04T14:40:05Z",
  "version": 3,
  "changeset": 44158844,
  "user": "MKnight",
  "uid": 39774,
  "tags": {
    "addr:housenumber": "230",
    "addr:street": "Prenzlauer Allee",
    "email": "robert@kiezradler.de",
    "name": "Kiezradler",
    "opening_hours": "Mo-Fr 09:00-12:00,13:00-19:00",
    "phone": "+49 30 54862946",
    "shop": "bicycle",
    "website": "http://kiezradler.de/"
  }
},
{
  "type": "node",
  "id": 4248091243,
  "lat": 52.5350831,
  "lon": 13.4346446,
  "timestamp": "2016-06-17T09:21:24Z",
  "version": 1,
  "changeset": 40087327,
  "user": "Ziltoidium",
  "uid": 597250,
  "tags": {
    "addr:city": "Berlin",
    "addr:housenumber": "132",
    "addr:postcode": "10407",
    "addr:street": "Danziger Straße",
    "contact:phone": "+49 30 77900593",
    "contact:website": "http://www.fahrradkonsum-berlin.de",
    "name": "Fahrrad Konsum",
    "shop": "bicycle"
  }
},
{
  "type": "node",
  "id": 4261575758,
  "lat": 52.5290315,
  "lon": 13.4008451,
  "timestamp": "2016-06-23T21:18:13Z",
  "version": 1,
  "changeset": 40245540,
  "user": "MorbZ",
  "uid": 42705,
  "tags": {
    "addr:city": "Berlin",
    "addr:country": "DE",
    "addr:housenumber": "77",
    "addr:postcode": "10119",
    "addr:street": "Linienstraße",
    "addr:suburb": "Mitte",
    "name": "Brompton",
    "shop": "bicycle"
  }
},
{
  "type": "node",
  "id": 4284856293,
  "lat": 52.4853588,
  "lon": 13.3169909,
  "timestamp": "2018-03-29T22:57:27Z",
  "version": 5,
  "changeset": 57648278,
  "user": "jacobbraeutigam",
  "uid": 1260280,
  "tags": {
    "addr:city": "Berlin",
    "addr:housenumber": "36-38",
    "addr:postcode": "10713",
    "addr:street": "Wilhelmsaue",
    "email": "wilmersdorf@lwnet.de",
    "fax": "+4930 319802 22",
    "name": "Fahrradladen, Fahrradwerkstatt, Lwerk",
    "operator": "FSD Lwerk Berlin Brandenburg gGmbH",
    "phone": "+4930 319802 00",
    "shop": "bicycle",
    "website": "http://www.lwerk-berlin.de"
  }
},
{
  "type": "node",
  "id": 4302957194,
  "lat": 52.4464546,
  "lon": 13.2946854,
  "timestamp": "2016-07-14T15:38:18Z",
  "version": 1,
  "changeset": 40742004,
  "user": "geozeisig",
  "uid": 66391,
  "tags": {
    "addr:city": "Berlin",
    "addr:housenumber": "59",
    "addr:postcode": "12203",
    "addr:street": "Unter den Eichen",
    "addr:suburb": "Lichterfelde",
    "name": "e-motion",
    "opening_hours": "Mo-Fr 10:00-18:00; Sa 10:00-16:00",
    "service:bicycle:retail": "yes",
    "shop": "bicycle",
    "website": "http://www.emotion-technologies.de/"
  }
},
{
  "type": "node",
  "id": 4306025963,
  "lat": 52.5441528,
  "lon": 13.3729065,
  "timestamp": "2016-07-16T14:05:11Z",
  "version": 1,
  "changeset": 40780368,
  "user": "MorbZ",
  "uid": 42705,
  "tags": {
    "addr:city": "Berlin",
    "addr:country": "DE",
    "addr:housenumber": "21",
    "addr:postcode": "13347",
    "addr:street": "Gerichtstraße",
    "addr:suburb": "Gesundbrunnen",
    "name": "Cargo Circus",
    "shop": "bicycle",
    "website": "http://kinglarry.de/"
  }
},
{
  "type": "node",
  "id": 4312500166,
  "lat": 52.5227782,
  "lon": 13.4516964,
  "timestamp": "2017-07-14T12:25:07Z",
  "version": 2,
  "changeset": 50281867,
  "user": "thror",
  "uid": 41951,
  "tags": {
    "addr:city": "Berlin",
    "addr:housenumber": "29",
    "addr:postcode": "10249",
    "addr:street": "Straßmannstraße",
    "name": "Bike A-way Berlin",
    "opening_hours": "Mo 14:00-19:00; Tu-Fr 12:00-19:00; Sa 11:00-16:00",
    "phone": "+49 1523 3801235",
    "shop": "bicycle",
    "website": "http://www.bikeawayberlin.com/"
  }
},
{
  "type": "node",
  "id": 4339053516,
  "lat": 52.5634119,
  "lon": 13.3640152,
  "timestamp": "2016-08-06T22:10:57Z",
  "version": 1,
  "changeset": 41294894,
  "user": "MorbZ",
  "uid": 42705,
  "tags": {
    "name": "Fahrrad Laden",
    "shop": "bicycle"
  }
},
{
  "type": "node",
  "id": 4355497833,
  "lat": 52.5172242,
  "lon": 13.4376666,
  "timestamp": "2016-09-06T19:31:35Z",
  "version": 2,
  "changeset": 41964982,
  "user": "MKnight",
  "uid": 39774,
  "tags": {
    "addr:city": "Berlin",
    "addr:housenumber": "76",
    "addr:postcode": "10243",
    "addr:street": "Karl-Marx-Allee",
    "name": "Fahrrad Lounge",
    "opening_hours": "Mo-Fr 10:00-19:00; Sa 10:00-18:00",
    "phone": "+49 30 23947640",
    "shop": "bicycle"
  }
},
{
  "type": "node",
  "id": 4366358665,
  "lat": 52.4469249,
  "lon": 13.3274547,
  "timestamp": "2018-04-15T08:23:28Z",
  "version": 3,
  "changeset": 58104863,
  "user": "Spanholz",
  "uid": 2209894,
  "tags": {
    "fax": "+49 30 7720 8151",
    "name": "Bad Bikes",
    "opening_hours": "Mo-Fr 10:00-19:00; Sa 10:00-14:00",
    "phone": "+49 30 7720 6859",
    "shop": "bicycle",
    "website": "http://www.badbikes-berlin.de/"
  }
},
{
  "type": "node",
  "id": 4383720657,
  "lat": 52.4900723,
  "lon": 13.3560181,
  "timestamp": "2018-06-02T19:40:22Z",
  "version": 3,
  "changeset": 59491724,
  "user": "JanCBorchardt",
  "uid": 360480,
  "tags": {
    "addr:city": "Berlin",
    "addr:country": "DE",
    "addr:housenumber": "86",
    "addr:postcode": "10823",
    "addr:street": "Grunewaldstraße",
    "addr:suburb": "Schöneberg",
    "email": "info@fahrradklinik-schoeneberg.de",
    "name": "Fahrradklinik",
    "name:de": "Fahrradklinik Schöneberg",
    "opening_hours": "Mo-Fr 10:00-19:00; Sa 10:00-14:00",
    "operator": "Gerd Dubben",
    "phone": "+49 30 78 09 78 42",
    "shop": "bicycle",
    "website": "http://www.fahrradklinik-schoeneberg.de/",
    "wheelchair": "no"
  }
},
{
  "type": "node",
  "id": 4397894205,
  "lat": 52.5069475,
  "lon": 13.2985221,
  "timestamp": "2016-09-12T18:13:36Z",
  "version": 1,
  "changeset": 42107167,
  "user": "FridoDeluxe",
  "uid": 64325,
  "tags": {
    "addr:city": "Berlin",
    "addr:housenumber": "75",
    "addr:postcode": "10627",
    "addr:street": "Kantstraße",
    "name": "Just Bikes",
    "opening_hours": "Mo-Fr 10:00-19:00, Sa 10:00-16:00",
    "operator": "Vasil Lalov",
    "phone": "+49 30 91474670",
    "shop": "bicycle",
    "website": "http://www.just-bikes.de/"
  }
},
{
  "type": "node",
  "id": 4411004795,
  "lat": 52.5483128,
  "lon": 13.3487323,
  "timestamp": "2016-09-21T06:21:48Z",
  "version": 1,
  "changeset": 42314995,
  "user": "proeffki",
  "uid": 2282628,
  "tags": {
    "shop": "bicycle"
  }
},
{
  "type": "node",
  "id": 4429217308,
  "lat": 52.5319225,
  "lon": 13.3420701,
  "timestamp": "2018-03-20T17:52:46Z",
  "version": 3,
  "changeset": 57360748,
  "user": "MoaBit",
  "uid": 7834572,
  "tags": {
    "addr:city": "Berlin",
    "addr:country": "DE",
    "addr:housenumber": "47",
    "addr:postcode": "10551",
    "addr:street": "Birkenstraße",
    "addr:suburb": "Moabit",
    "email": "kontakt@grimmshop-berlin.de",
    "name": "Grimm Bike",
    "opening_hours": "Mo-Fr 10:00-18:30; Sa 10:00-15:00",
    "shop": "bicycle",
    "website": "http://www.grimmshop-berlin.de",
    "wheelchair": "no"
  }
},
{
  "type": "node",
  "id": 4434307190,
  "lat": 52.4860261,
  "lon": 13.3354556,
  "timestamp": "2016-11-02T11:37:20Z",
  "version": 2,
  "changeset": 43348997,
  "user": "MKnight",
  "uid": 39774,
  "tags": {
    "addr:city": "Berlin",
    "addr:housenumber": "45",
    "addr:postcode": "10715",
    "addr:street": "Babelsberger Straße",
    "name": "Glücksrad",
    "opening_hours": "Mo-Fr 11:00-18:00",
    "operator": "Manfred",
    "shop": "bicycle"
  }
},
{
  "type": "node",
  "id": 4446403132,
  "lat": 52.4861729,
  "lon": 13.3513797,
  "timestamp": "2018-04-15T20:05:06Z",
  "version": 2,
  "changeset": 58119126,
  "user": "JanCBorchardt",
  "uid": 360480,
  "tags": {
    "email": "info@bikecology.de",
    "fax": "+4930 7870349 7",
    "name": "Bikecology",
    "opening_hours": "Mo-Fr 11:00-19:00; Sa 11:00-15:00",
    "phone": "+4930 7870349 5",
    "shop": "bicycle",
    "website": "http://www.bikecology.de",
    "wheelchair": "limited"
  }
},
{
  "type": "node",
  "id": 4463291068,
  "lat": 52.5645895,
  "lon": 13.4130428,
  "timestamp": "2018-04-11T20:13:41Z",
  "version": 2,
  "changeset": 58016698,
  "user": "village",
  "uid": 292618,
  "tags": {
    "name": "Fahrrad Wittig",
    "opening_hours": "Mo-Sa 10:00-18:00; Mar-Nov: Mo-Fr 10:00-20:00; Sa 10:00-18:00",
    "repair": "yes",
    "shop": "bicycle"
  }
},
{
  "type": "node",
  "id": 4736904442,
  "lat": 52.4961207,
  "lon": 13.3370562,
  "timestamp": "2018-07-16T20:04:39Z",
  "version": 3,
  "changeset": 60769616,
  "user": "wheelmap_visitor",
  "uid": 290680,
  "tags": {
    "addr:city": "Berlin",
    "addr:country": "DE",
    "addr:housenumber": "7",
    "addr:postcode": "10777",
    "addr:street": "Bamberger Straße",
    "addr:suburb": "Wilmersdorf",
    "contact:phone": "+49 30 24371501",
    "name": "NutzFahrräder Werner Lehnert",
    "note": "seit längerem nur Sa geöffnet",
    "opening_hours": "Sa 09:00-16:00",
    "operator": "Werner Lehnert",
    "shop": "bicycle",
    "toilets:wheelchair": "no",
    "wheelchair": "limited"
  }
},
{
  "type": "node",
  "id": 4788813821,
  "lat": 52.5314732,
  "lon": 13.3362392,
  "timestamp": "2017-04-11T19:08:58Z",
  "version": 1,
  "changeset": 47667122,
  "user": "rabon",
  "uid": 1972608,
  "tags": {
    "name": "Nieke Bike",
    "opening_hours": "Mo-Fr 14:30-19:30",
    "phone": "+4917682958537",
    "shop": "bicycle"
  }
},
{
  "type": "node",
  "id": 4816566651,
  "lat": 52.4794939,
  "lon": 13.4375098,
  "timestamp": "2017-11-13T19:36:13Z",
  "version": 3,
  "changeset": 53749864,
  "user": "ToJocham",
  "uid": 4952192,
  "tags": {
    "addr:city": "Berlin",
    "addr:housenumber": "101",
    "addr:postcode": "12043",
    "addr:street": "Karl-Marx-Straße",
    "contact:phone": "+49 30 56829745",
    "name": "Fahrradshop Lienau",
    "opening_hours": "Mo-Fr 10:00-18:30, Sa 10:00-18:00",
    "service:bicycle:rental": "yes",
    "service:bicycle:repair": "yes",
    "shop": "bicycle",
    "wheelchair": "yes"
  }
},
{
  "type": "node",
  "id": 4816629394,
  "lat": 52.4836686,
  "lon": 13.4400561,
  "timestamp": "2017-04-25T20:55:34Z",
  "version": 1,
  "changeset": 48142008,
  "user": "kapmap",
  "uid": 4811641,
  "tags": {
    "addr:city": "Berlin",
    "addr:housenumber": "52",
    "addr:postcode": "12045",
    "addr:street": "Weserstraße",
    "name": "Cheech's 1Fahrt",
    "phone": "+49 1523 1722231",
    "service:bicycle:repair": "yes",
    "shop": "bicycle"
  }
},
{
  "type": "node",
  "id": 4816663867,
  "lat": 52.4746901,
  "lon": 13.4235856,
  "timestamp": "2017-04-25T21:18:35Z",
  "version": 1,
  "changeset": 48142565,
  "user": "kapmap",
  "uid": 4811641,
  "tags": {
    "addr:city": "Berlin",
    "addr:housenumber": "35",
    "addr:postcode": "12049",
    "addr:street": "Allerstraße",
    "name": "Bike Mike",
    "service:bicycle:repair": "yes",
    "service:bicycle:retail": "yes",
    "shop": "bicycle"
  }
},
{
  "type": "node",
  "id": 4816665792,
  "lat": 52.4647412,
  "lon": 13.4336290,
  "timestamp": "2017-04-25T21:21:45Z",
  "version": 1,
  "changeset": 48142629,
  "user": "kapmap",
  "uid": 4811641,
  "tags": {
    "addr:city": "Berlin",
    "addr:housenumber": "33",
    "addr:postcode": "12051",
    "addr:street": "Delbrückstraße",
    "name": "Fahrradpark",
    "service:bicycle:rental": "yes",
    "service:bicycle:repair": "yes",
    "shop": "bicycle"
  }
},
{
  "type": "node",
  "id": 4817176725,
  "lat": 52.4925168,
  "lon": 13.3969253,
  "timestamp": "2017-04-26T03:42:28Z",
  "version": 1,
  "changeset": 48148034,
  "user": "kartonage",
  "uid": 1497225,
  "tags": {
    "addr:city": "Berlin",
    "addr:country": "DE",
    "addr:housenumber": "48",
    "addr:postcode": "10961",
    "addr:street": "Mittenwalder Straße",
    "addr:suburb": "Kreuzberg",
    "name": "Heimwerkerbedarf Fahrräder",
    "opening_hours": "Mo-Sa 12:00-16:00",
    "service:bicycle:rental": "yes",
    "service:bicycle:repair": "yes",
    "service:bicycle:retail": "yes",
    "shop": "bicycle"
  }
},
{
  "type": "node",
  "id": 4826062336,
  "lat": 52.5210248,
  "lon": 13.4091620,
  "timestamp": "2017-04-29T21:39:45Z",
  "version": 1,
  "changeset": 48268067,
  "user": "kartonage",
  "uid": 1497225,
  "tags": {
    "addr:city": "Berlin",
    "addr:country": "DE",
    "addr:housenumber": "1a",
    "addr:postcode": "10178",
    "addr:street": "Panoramastraße",
    "addr:suburb": "Mitte",
    "contact:phone": "+49 30 240 479 91",
    "contact:website": "https://www.fattiretours.com",
    "description": "Rent bikes, e-bikes, segways. Guided tours available.",
    "name": "Fat Tire Tours",
    "opening_hours": "Dec-Feb: Mo,We,Sa 09:30-18:00; Mar-Apr: 09:30-18:00; May-Sep: 09:30-20:00; Oct-Nov: 09:30-18:00",
    "service:bicycle:rental": "yes",
    "shop": "bicycle"
  }
},
{
  "type": "node",
  "id": 4828048439,
  "lat": 52.5547307,
  "lon": 13.3448726,
  "timestamp": "2017-05-09T10:44:04Z",
  "version": 2,
  "changeset": 48527953,
  "user": "mueschel",
  "uid": 616774,
  "tags": {
    "addr:city": "Berlin",
    "addr:country": "DE",
    "addr:housenumber": "59A",
    "addr:postcode": "13349",
    "addr:street": "Müllerstraße",
    "addr:suburb": "Wedding",
    "contact:phone": "+49 30 417 297 80",
    "name": "Fahrrad Köhler",
    "opening_hours": "Tu-Fr 10:00-18:00; Sa 10:00-14:00; Su,PH off",
    "service:bicycle:pump": "yes",
    "service:bicycle:repair": "yes",
    "shop": "bicycle"
  }
},
{
  "type": "node",
  "id": 4840984955,
  "lat": 52.5213596,
  "lon": 13.4066193,
  "timestamp": "2018-07-26T13:05:45Z",
  "version": 3,
  "changeset": 61088206,
  "user": "MKnight",
  "uid": 39774,
  "tags": {
    "addr:city": "Berlin",
    "addr:country": "DE",
    "addr:housenumber": "9",
    "addr:postcode": "10178",
    "addr:street": "Karl-Liebknecht-Straße",
    "addr:suburb": "Mitte",
    "contact:website": "https://aus.berlin/",
    "email": "post@aus.berlin, onlineshop@ausberlin.de",
    "level": "0",
    "name": "ausberlin",
    "opening_hours": "Mo-Sa 10:00-20:00, Su 12:00-18:00",
    "operator": "D.Wientzek",
    "payment:american_express": "yes",
    "payment:cash": "yes",
    "payment:contactless": "yes",
    "payment:credit_cards": "yes",
    "payment:mastercard": "yes",
    "payment:visa": "yes",
    "phone": "+493097005640",
    "service:bicycle:rental": "yes",
    "shop": "gift",
    "website": "https://aus.berlin/",
    "wheelchair": "yes"
  }
},
{
  "type": "node",
  "id": 4866112523,
  "lat": 52.5216500,
  "lon": 13.4495136,
  "timestamp": "2017-05-20T12:21:02Z",
  "version": 1,
  "changeset": 48841775,
  "user": "DRueskamp",
  "uid": 5973259,
  "tags": {
    "addr:housenumber": "2",
    "addr:postcode": "10249",
    "addr:street": "Petersburger Platz",
    "name": "Vintage Velo Berlin",
    "name:de": "Vintage Velo Berlin",
    "phone": "01621084887",
    "shop": "bicycle"
  }
},
{
  "type": "node",
  "id": 4866113224,
  "lat": 52.5262478,
  "lon": 13.4982232,
  "timestamp": "2017-08-12T11:38:29Z",
  "version": 2,
  "changeset": 51056084,
  "user": "icke_wars",
  "uid": 1634188,
  "tags": {
    "addr:housenumber": "55",
    "addr:postcode": "10365",
    "addr:street": "Herzbergstraße",
    "name": "VeloCiao",
    "name:de": "VeloCiao",
    "phone": "03060968911",
    "shop": "bicycle"
  }
},
{
  "type": "node",
  "id": 4866113226,
  "lat": 52.5126452,
  "lon": 13.3821903,
  "timestamp": "2017-10-31T12:03:51Z",
  "version": 3,
  "changeset": 53393551,
  "user": "TheBlackMan",
  "uid": 1468248,
  "tags": {
    "addr:housenumber": "91",
    "addr:postcode": "10117",
    "addr:street": "Wilhelmstraße",
    "name": "Steel Vintage Bike Cycle Café",
    "phone": "+49 30 20623877",
    "shop": "bicycle",
    "website": "https://www.steel-vintage.com/"
  }
},
{
  "type": "node",
  "id": 4897592954,
  "lat": 52.4928272,
  "lon": 13.3711432,
  "timestamp": "2017-06-05T14:37:58Z",
  "version": 1,
  "changeset": 49273071,
  "user": "geozeisig",
  "uid": 66391,
  "tags": {
    "amenity": "bicycle_repair_station",
    "opening_hours": "24/7",
    "service:bicycle:chain_tool": "yes",
    "service:bicycle:pump": "yes"
  }
},
{
  "type": "node",
  "id": 4900034723,
  "lat": 52.4561048,
  "lon": 13.3243137,
  "timestamp": "2017-07-07T16:23:35Z",
  "version": 3,
  "changeset": 50112890,
  "user": "ndevln",
  "uid": 5620182,
  "tags": {
    "addr:housenumber": "127",
    "addr:street": "Albrechtstraße",
    "description": "auch Fahrradverleih",
    "name": "bikechecker",
    "opening_hours": "Mo-Fr 10:00-19:00; Sa 10:00-15:00; PH off",
    "shop": "bicycle",
    "website": "http://www.bikechecker-berlin.de/"
  }
},
{
  "type": "node",
  "id": 4915105982,
  "lat": 52.4670449,
  "lon": 13.4356725,
  "timestamp": "2017-06-14T15:36:07Z",
  "version": 1,
  "changeset": 49533229,
  "user": "kartonage",
  "uid": 1497225,
  "tags": {
    "addr:city": "Berlin",
    "addr:country": "DE",
    "addr:housenumber": "3",
    "addr:postcode": "12051",
    "addr:street": "Hertastraße",
    "addr:suburb": "Neukölln",
    "name": "Como Bike",
    "opening_hours": "Mo-Fr 10:00-19:00; Sa 11:00-16:00; Su,PH off",
    "service:bicycle:pump": "Mo-Fr 07:00-17:00; Sa,Su,PH off",
    "service:bicycle:rental": "yes",
    "service:bicycle:second_hand": "yes",
    "shop": "bicycle",
    "wheelchair": "limited"
  }
},
{
  "type": "node",
  "id": 4946664967,
  "lat": 52.4542248,
  "lon": 13.2927768,
  "timestamp": "2018-06-22T02:33:13Z",
  "version": 4,
  "changeset": 60060495,
  "user": "kartonage",
  "uid": 1497225,
  "tags": {
    "addr:city": "Berlin",
    "addr:country": "DE",
    "addr:housenumber": "30",
    "addr:postcode": "14195",
    "addr:street": "Fabeckstraße",
    "addr:suburb": "Dahlem",
    "fee": "no",
    "name": "FURad",
    "opening_hours": "Mo 18:00-20:30; We 18:00-20:00",
    "repair": "only",
    "service:bicycle:chain_tool": "yes",
    "service:bicycle:diy": "yes",
    "service:bicycle:pump": "yes",
    "service:bicycle:retail": "no",
    "shop": "bicycle"
  }
},
{
  "type": "node",
  "id": 4951277393,
  "lat": 52.5045138,
  "lon": 13.2950654,
  "timestamp": "2017-07-04T16:57:50Z",
  "version": 1,
  "changeset": 50039111,
  "user": "kartonage",
  "uid": 1497225,
  "tags": {
    "addr:city": "Berlin",
    "addr:country": "DE",
    "addr:housenumber": "11",
    "addr:postcode": "14057",
    "addr:street": "Holtzendorffstraße",
    "addr:suburb": "Charlottenburg",
    "contact:website": "http://www.velolocal.berlin/",
    "name": "Velo Local",
    "opening_hours": "Mo-Tu,Th-Fr 10:00-19:00; Sa 10:00-14:00; We,Su,PH off",
    "repair": "yes",
    "shop": "bicycle"
  }
},
{
  "type": "node",
  "id": 4960259887,
  "lat": 52.5032501,
  "lon": 13.4302893,
  "timestamp": "2017-08-12T11:38:29Z",
  "version": 2,
  "changeset": 51056084,
  "user": "icke_wars",
  "uid": 1634188,
  "tags": {
    "addr:housenumber": "18",
    "addr:street": "Wrangelstraße",
    "name": "8bar bikes",
    "opening_hours": "Mo-Sa 12:00-18:00",
    "shop": "bicycle",
    "website": "https://8bar-bikes.com/"
  }
},
{
  "type": "node",
  "id": 5053734166,
  "lat": 52.4950926,
  "lon": 13.3954211,
  "timestamp": "2017-08-23T14:12:49Z",
  "version": 2,
  "changeset": 51377064,
  "user": "poinck",
  "uid": 1552948,
  "tags": {
    "addr:city": "Berlin",
    "addr:housenumber": "58",
    "addr:postcode": "10961",
    "addr:street": "Zossener Straße",
    "name": "Hollandrad",
    "opening_hours": "Mo-Fr 11:00-19:00, Sa 10:00-17:00",
    "service:bicycle:repair": "yes",
    "service:bicycle:sales": "yes",
    "shop": "bicycle"
  }
},
{
  "type": "node",
  "id": 5075902373,
  "lat": 52.5587105,
  "lon": 13.4430337,
  "timestamp": "2017-10-03T10:12:31Z",
  "version": 2,
  "changeset": 52591220,
  "user": "MKnight",
  "uid": 39774,
  "tags": {
    "addr:city": "Berlin",
    "addr:housenumber": "19",
    "addr:postcode": "13086",
    "addr:street": "Wigandstaler Straße",
    "name": "Recycling Bikes",
    "opening_hours": "Tu-Fr 10:00-18:00, Sa 10:00-13:00",
    "service:bicycle:bicycle": "yes",
    "service:bicycle:repair": "yes",
    "service:bicycle:second_hand": "yes",
    "shop": "bicycle"
  }
},
{
  "type": "node",
  "id": 5115328729,
  "lat": 52.5128464,
  "lon": 13.4732813,
  "timestamp": "2018-08-19T06:17:23Z",
  "version": 3,
  "changeset": 61785320,
  "user": "kartonage",
  "uid": 1497225,
  "tags": {
    "addr:city": "Berlin",
    "addr:country": "DE",
    "addr:housenumber": "9",
    "addr:postcode": "10247",
    "addr:street": "Jessnerstraße",
    "addr:suburb": "Friedrichshain",
    "contact:website": "http://velocelli.com",
    "name": "Velocelli",
    "opening_hours": "Tu, Th 11:00-18:00; We 11:00-20:00; Fr 11:00-19:00; Sa 14:00-19:00",
    "shop": "bicycle"
  }
},
{
  "type": "node",
  "id": 5142891123,
  "lat": 52.5374649,
  "lon": 13.2715269,
  "timestamp": "2017-10-02T11:03:19Z",
  "version": 1,
  "changeset": 52560801,
  "user": "BloodyRain2k",
  "uid": 1081794,
  "tags": {
    "addr:housenumber": "1",
    "addr:postcode": "13629",
    "addr:street": "Jungfernheideweg",
    "email": "normradstation@t-online.de",
    "name": "Norm Radstation - Filiale 2",
    "opening_hours": "Mo-Fr 09:00-18:30; Sa 09:00-14:30",
    "phone": "030-91542298",
    "shop": "bicycle",
    "website": "http://www.norm-radstation.de"
  }
},
{
  "type": "node",
  "id": 5223291553,
  "lat": 52.5406988,
  "lon": 13.4136828,
  "timestamp": "2017-11-11T15:03:40Z",
  "version": 1,
  "changeset": 53692749,
  "user": "alpha_14",
  "uid": 3266826,
  "tags": {
    "name": "Danziger Bike Shop",
    "shop": "bicycle"
  }
},
{
  "type": "node",
  "id": 5250129524,
  "lat": 52.4872130,
  "lon": 13.4287328,
  "timestamp": "2018-06-29T11:23:14Z",
  "version": 2,
  "changeset": 60270787,
  "user": "wheelmap_visitor",
  "uid": 290680,
  "tags": {
    "name": "Fahrbar",
    "opening_hours": "Mo-Sa 12:00-20:00",
    "service:bicycle:rental": "yes",
    "service:bicycle:retail": "yes",
    "shop": "bicycle",
    "website": "http://fahrbar-berlin.de",
    "wheelchair": "no"
  }
},
{
  "type": "node",
  "id": 5264344201,
  "lat": 52.5442416,
  "lon": 13.4931615,
  "timestamp": "2017-12-07T10:24:35Z",
  "version": 2,
  "changeset": 54427057,
  "user": "torcsa",
  "uid": 139050,
  "tags": {
    "addr:city": "Berlin",
    "addr:country": "DE",
    "addr:housenumber": "115",
    "addr:postcode": "13055",
    "addr:street": "Konrad-Wolf-Straße",
    "name": "Oranke Rad",
    "service:bicycle:rental": "yes",
    "service:bicycle:repair": "yes",
    "service:bicycle:retail": "yes",
    "shop": "bicycle",
    "website": "http://orankerad.de/"
  }
},
{
  "type": "node",
  "id": 5323683223,
  "lat": 52.4865626,
  "lon": 13.3595416,
  "timestamp": "2018-01-06T13:18:08Z",
  "version": 1,
  "changeset": 55211020,
  "user": "AmahoroNeza",
  "uid": 5515659,
  "tags": {
    "name": "Brompton",
    "shop": "bicycle"
  }
},
{
  "type": "node",
  "id": 5370820427,
  "lat": 52.5326309,
  "lon": 13.4058792,
  "timestamp": "2018-01-29T18:41:32Z",
  "version": 1,
  "changeset": 55869020,
  "user": "JanCBorchardt",
  "uid": 360480,
  "tags": {
    "addr:housenumber": "17",
    "addr:postcode": "10119",
    "addr:street": "Fehrbelliner Straße",
    "email": "werkstatt@pret-a-velo.de",
    "name": "Prêt á Vélo",
    "opening_hours": "Tu-Fr 12:00-19:00; Sa 11:00-17:00",
    "phone": "+49 30 246 379 12",
    "shop": "bicycle",
    "website": "https://www.pret-a-velo.de"
  }
},
{
  "type": "node",
  "id": 5381548654,
  "lat": 52.5510656,
  "lon": 13.4151958,
  "timestamp": "2018-02-02T21:44:47Z",
  "version": 1,
  "changeset": 56008963,
  "user": "28MzXP5-_uXH",
  "uid": 1940221,
  "tags": {
    "name": "Prenzrad",
    "shop": "bicycle"
  }
},
{
  "type": "node",
  "id": 5417916721,
  "lat": 52.5002945,
  "lon": 13.4400187,
  "timestamp": "2018-02-17T07:56:00Z",
  "version": 1,
  "changeset": 56434134,
  "user": "Tommy Ficowic",
  "uid": 6254254,
  "tags": {
    "addr:postcode": "10997",
    "name": "Pedalkraft",
    "opening_hours": "Mo-Fr 10:00-19:00; Sa 10:00-14:00",
    "phone": "+49 30 6187772",
    "shop": "bicycle",
    "website": "http://pedalkraftberlin.de"
  }
},
{
  "type": "node",
  "id": 5467046421,
  "lat": 52.5039323,
  "lon": 13.4832901,
  "timestamp": "2018-03-24T07:44:29Z",
  "version": 2,
  "changeset": 57476737,
  "user": "khanku",
  "uid": 136126,
  "tags": {
    "addr:housenumber": "55",
    "addr:postcode": "10317",
    "addr:street": "Kaskelstraße",
    "email": "info@ozoncyclery.com",
    "name": "Ozon Cyclery (BLO Ateliers)",
    "opening_hours": "Sa-Su 10:30-20:30",
    "shop": "bicycle",
    "website": "http://ozoncyclery.com"
  }
},
{
  "type": "node",
  "id": 5481419860,
  "lat": 52.5091452,
  "lon": 13.4247436,
  "timestamp": "2018-03-18T08:26:35Z",
  "version": 2,
  "changeset": 57284544,
  "user": "kartonage",
  "uid": 1497225,
  "tags": {
    "addr:city": "Berlin",
    "addr:country": "DE",
    "addr:housenumber": "44",
    "addr:postcode": "10179",
    "addr:street": "Köpenicker Straße",
    "addr:suburb": "Mitte",
    "name": "Boréal Bikes",
    "opening_hours": "Mo-Fr 10:00-19:00",
    "payment:cash": "yes",
    "payment:coins": "yes",
    "payment:mastercard": "yes",
    "payment:visa": "yes",
    "service:bicycle:Bicycle_Sales_and_Service": "yes",
    "service:bicycle:chain_tool": "yes",
    "service:bicycle:charging": "yes",
    "service:bicycle:cleaning": "yes",
    "service:bicycle:dealer": "yes",
    "service:bicycle:ebike": "yes",
    "service:bicycle:parts": "yes",
    "service:bicycle:pump": "yes",
    "service:bicycle:rental": "yes",
    "service:bicycle:repair": "yes",
    "service:bicycle:retail": "yes",
    "service:bicycle:service": "yes",
    "service:bicycle:tools": "yes",
    "shop": "bicycle"
  }
},
{
  "type": "node",
  "id": 5486696213,
  "lat": 52.4981427,
  "lon": 13.4421124,
  "timestamp": "2018-03-18T16:08:28Z",
  "version": 1,
  "changeset": 57294490,
  "user": "atpl_pilot",
  "uid": 881429,
  "tags": {
    "name": "Kubis Bike Shop",
    "opening_hours": "Mo-Fr 10:00-19:00, Sa 12:00-18:00",
    "service:bicycle:pump": "yes",
    "service:bicycle:rental": "yes",
    "service:bicycle:repair": "yes",
    "shop": "bicycle",
    "website": "http://www.kubisbikeshop.com/",
    "wheelchair": "no"
  }
},
{
  "type": "node",
  "id": 5502810969,
  "lat": 52.5262919,
  "lon": 13.3993527,
  "timestamp": "2018-03-25T10:51:22Z",
  "version": 1,
  "changeset": 57504655,
  "user": "Ilian",
  "uid": 214267,
  "tags": {
    "name": "BICICLI Showroom",
    "opening_hours": "Tu-Fr 13:00-17:00",
    "phone": "+493086399609",
    "shop": "bicycle",
    "website": "https://bicicli.de"
  }
},
{
  "type": "node",
  "id": 5502810970,
  "lat": 52.5224692,
  "lon": 13.3861859,
  "timestamp": "2018-03-25T10:51:22Z",
  "version": 1,
  "changeset": 57504655,
  "user": "Ilian",
  "uid": 214267,
  "tags": {
    "name": "BICICLI Cycling Concept Store",
    "opening_hours": "Mo-Sa 12:00-19:00",
    "phone": "+493025763970",
    "shop": "bicycle",
    "website": "https://bicicli.de/"
  }
},
{
  "type": "node",
  "id": 5503456920,
  "lat": 52.5166257,
  "lon": 13.4611782,
  "timestamp": "2018-03-25T16:56:54Z",
  "version": 1,
  "changeset": 57512631,
  "user": "khanku",
  "uid": 136126,
  "tags": {
    "addr:city": "Berlin",
    "addr:country": "DE",
    "addr:postcode": "10247",
    "addr:street": "Proskauer Straße",
    "addr:suburb": "Friedrichshain",
    "name": "The Bike Doctor",
    "opening_hours": "Tu-Fr 11:00-19:00; Sa 11:00-15:00",
    "shop": "bicycle"
  }
},
{
  "type": "node",
  "id": 5696776138,
  "lat": 52.5025203,
  "lon": 13.3443131,
  "timestamp": "2018-06-17T15:33:13Z",
  "version": 1,
  "changeset": 59917532,
  "user": "Raymond",
  "uid": 16478,
  "tags": {
    "amenity": "compressed_air",
    "fee": "no",
    "operator": "ibis"
  }
},
{
  "type": "node",
  "id": 5697166165,
  "lat": 52.4580367,
  "lon": 13.5095417,
  "timestamp": "2018-06-17T18:43:20Z",
  "version": 1,
  "changeset": 59921004,
  "user": "BER319",
  "uid": 3020814,
  "tags": {
    "amenity": "vending_machine",
    "operator": "Decathlon",
    "vending": "bicycle_tube"
  }
},
{
  "type": "node",
  "id": 5737464218,
  "lat": 52.4951699,
  "lon": 13.3973767,
  "timestamp": "2018-07-03T20:44:53Z",
  "version": 1,
  "changeset": 60391043,
  "user": "Dahie",
  "uid": 291002,
  "tags": {
    "addr:city": "Berlin",
    "addr:housenumber": "16",
    "addr:postcode": "10961",
    "addr:street": "Blücherstraße",
    "name": "RE'BIKE",
    "service:bicycle:pump": "yes",
    "service:bicycle:rental": "yes",
    "service:bicycle:repair": "yes",
    "service:bicycle:retail": "yes",
    "service:bicycle:sales": "yes",
    "shop": "bicycle",
    "wheelchair": "no"
  }
},
{
  "type": "node",
  "id": 5754449178,
  "lat": 52.4912284,
  "lon": 13.3852453,
  "timestamp": "2018-07-11T16:59:33Z",
  "version": 1,
  "changeset": 60622813,
  "user": "Ilian",
  "uid": 214267,
  "tags": {
    "name": "Rad-Kreuz",
    "shop": "bicycle",
    "website": "http://www.rad-kreuz.de/",
    "wheelchair": "yes"
  }
},
{
  "type": "node",
  "id": 5793902273,
  "lat": 52.4961206,
  "lon": 13.3464885,
  "timestamp": "2018-07-29T14:11:29Z",
  "version": 1,
  "changeset": 61165626,
  "user": "Ulrich Hertlein",
  "uid": 18062,
  "tags": {
    "amenity": "compressed_air"
  }
},
{
  "type": "node",
  "id": 5810902811,
  "lat": 52.4799998,
  "lon": 13.3517586,
  "timestamp": "2018-08-05T20:56:34Z",
  "version": 2,
  "changeset": 61383498,
  "user": "tikita",
  "uid": 503169,
  "tags": {
    "name": "Fahrrad Ürün",
    "shop": "bicycle"
  }
},
{
  "type": "node",
  "id": 5831637278,
  "lat": 52.4958172,
  "lon": 13.4055132,
  "timestamp": "2018-08-14T07:50:22Z",
  "version": 1,
  "changeset": 61648742,
  "user": "tiggertrash",
  "uid": 8185369,
  "tags": {
    "name": "A. Horn Fahrräder",
    "opening_hours": "Apr-Sep: Mo-Fr 10:00-19:00; Apr-Sep: Sa 10:00-13:00; Dec-Mar: Mo closed; Oct-Mar: Mo-Fr 11:00-18:00; Oct-Mar: Sa 10:00-13:00",
    "shop": "bicycle",
    "wheelchair": "no"
  }
},
{
  "type": "node",
  "id": 5864513015,
  "lat": 52.4702289,
  "lon": 13.3708294,
  "timestamp": "2018-08-28T23:27:51Z",
  "version": 1,
  "changeset": 62087467,
  "user": "mbirth",
  "uid": 238337,
  "tags": {
    "amenity": "compressed_air",
    "fee": "no",
    "valves": "schrader"
  }
},
{
  "type": "node",
  "id": 5864513017,
  "lat": 52.4704483,
  "lon": 13.3715542,
  "timestamp": "2018-08-28T23:27:51Z",
  "version": 1,
  "changeset": 62087467,
  "user": "mbirth",
  "uid": 238337,
  "tags": {
    "amenity": "compressed_air",
    "fee": "no",
    "valves": "schrader"
  }
},
{
  "type": "node",
  "id": 5864513018,
  "lat": 52.4704593,
  "lon": 13.3714852,
  "timestamp": "2018-08-28T23:27:51Z",
  "version": 1,
  "changeset": 62087467,
  "user": "mbirth",
  "uid": 238337,
  "tags": {
    "amenity": "compressed_air",
    "fee": "no",
    "valves": "schrader"
  }
}

  ]
}
